id,hospital_name,computed_alternate_names,province,city,address,zip,phone,web,email,updated_at
1,北京佑安医院,,北京市,北京市,北京丰台区右安门外西头条8号,100069,电话:+86 10 8399 7599,nan,nan,2018-12-04T18:59:56Z
2,北京朝阳医院,,北京市,北京市,北京市朝阳区白家庄8号,100022,电话:+86 10 8523 1000,nan,nan,2018-12-04T19:00:04Z
3,北京协和医院,中国医学科学院北京协和医院; 中国协和医科大学北京协和医院; 中国医学科学院中国协和医科大学北京协和医院,北京市,北京市,北京市海淀区东单帅府园1号,100005,电话:+86 10 6915 6114,nan,nan,2019-08-19T19:51:45Z
4,北京大学第一医院,,北京市,北京市,北京市西城区西什库大街8号,100034,电话:+86 10 6655 1122,nan,nan,2018-12-04T19:01:42Z
5,北京大学人民医院,,北京市,北京市,北京市西城区西直门南大街11号,100034,电话:+86 10 8832 6666,nan,nan,2018-12-04T19:01:42Z
6,北京大学第三医院,,北京市,北京市,北京市海淀区花园北路49号,100083,电话:+86 10 6238 8404,nan,nan,2018-12-04T19:01:42Z
7,北京友谊医院,首都医科大学附属北京友谊医院; 首都医学院附属北京友谊医院,北京市,北京市,北京市西城区永安路95号,100000,电话:+86 10 6301 4411,nan,nan,2018-12-04T19:01:43Z
8,中日友好医院,北京中日友好医院,北京市,北京市,北京市朝阳区樱花东路2号,100029,电话:+86 10 8420 5566,nan,nan,2018-12-04T19:01:43Z
9,首都医科大学附属北京安贞医院,,北京市,北京市,北京市朝阳区安贞路2号,100029,电话:+86 10 6441 2431,nan,nan,2018-12-04T19:01:43Z
10,中国医学科学院附属阜外心血管病医院,,北京市,北京市,北京市西城区北礼士路167号,100037,电话:+86 10 8839 8866、68314466,nan,nan,2018-12-04T19:01:43Z
11,京东中美医院,,北京市,北京市,北京东燕郊开发区迎宾北路640号,101601,电话:+86 010-61596188,nan,nan,2018-12-04T19:01:43Z
12,首都医科大学附属北京世纪坛医院,,北京市,北京市,北京市海淀区羊坊店铁医院路10号,100038,电话:+86 10 6392 5588,nan,nan,2018-12-04T19:01:43Z
13,北京中医药大学东直门医院,,北京市,北京市,北京市东城区海运仓5号,100700,电话:+86 10 8401 3276,nan,nan,2018-12-04T19:01:43Z
14,首都医科大学附属北京同仁医院,,北京市,北京市,北京市丰台区马家堡东路88号,100730,电话:+86 10 8729 4860,nan,nan,2018-12-04T19:01:44Z
15,北京市航天中心医院,,北京市,北京市,北京市海淀区玉泉路15号,100049,电话:+86 10-59971199,nan,nan,2018-12-04T19:01:44Z
16,首都医科大学宣武医院,首都医科大学北京宣武医院,北京市,北京市,北京市宣武区长椿街45号,100053,电话:+86 10 6301 2835,nan,nan,2018-12-04T19:01:44Z
17,北京地坛医院,,北京市,北京市,北京市朝阳区京顺东街8号,100015,电话:+86 10 8432 2000,nan,nan,2018-12-04T19:01:44Z
18,清华大学第一附属医院,华信医院,北京市,北京市,北京市朝阳区酒仙桥一街坊6号,100016,电话:+86 10 6436 9999,nan,nan,2018-12-04T19:01:44Z
19,北京大学首钢医院,,北京市,北京市,北京市石景山区晋元庄路9号,100144,电话:+86 10 6887 5731,nan,nan,2018-12-04T19:01:44Z
20,北京天坛医院,,北京市,北京市,北京市东城区天坛西里6号,100050,电话:+86 10 6709 6611,nan,nan,2018-12-04T19:01:44Z
21,北京市南郊红星医院,,北京市,北京市,北京市大兴区瀛海镇中兴庄南路3号,100076,电话:+86 10-67992043,nan,nan,2018-12-04T19:01:44Z
22,北京市普仁医院,,北京市,北京市,北京市东城区崇外大街100号,100060,"电话:+86 10 6711 7711, 82753822",nan,nan,2018-12-04T19:01:45Z
23,北京中医药大学第三附属医院,,北京市,北京市,北京市朝阳区安外小关51号,100029,电话:010-52075555,nan,nan,2018-12-04T19:01:45Z
24,北京市海淀医院,,北京市,北京市,北京市海淀区中关村大街29号,100080,电话:62583042 62583093,nan,nan,2018-12-04T19:01:45Z
25,清华大学玉泉医院,清华大学第二附属医院,北京市,北京市,北京石景山区石景山路5号,100049,电话:88257755,nan,nan,2018-12-04T19:01:45Z
26,北京民众眼科医院,,北京市,北京市,北京市朝阳区林萃路林萃西里22号,100192,电话:+86 10 8272 6911,nan,nan,2018-12-04T19:01:45Z
27,北京顺义医院,,北京市,北京市,北京市顺义区光明南街3号,101300,电话:010-69423220,nan,nan,2018-12-04T19:01:45Z
28,煤炭总医院,,北京市,北京市,北京市朝阳区西坝河南里29号,100028,"电话:010-84512685,010-64667755",nan,nan,2018-12-04T19:01:45Z
29,北京中医药大学东方医院,,北京市,北京市,北京市丰台区方庄芳星园一区六号,100078,电话:10 6768 9653;67689655,nan,nan,2018-12-04T19:01:45Z
30,天津第一中心医院,,天津市,天津市,天津市南开区复康路24号,300011,电话:022-23626600;022-23626048,nan,nan,2018-12-04T19:01:45Z
31,天津医科大学总医院,,天津市,天津市,天津市和平区鞍山道154号,300052,电话:+86 22 2781 3550,nan,nan,2018-12-04T19:01:46Z
32,泰达国际心血管医院,,天津市,天津市,天津市经济技术开发区第三大街61号,300457,电话:+86 22 6520 8888;4001-568-568,nan,nan,2018-12-04T19:01:46Z
33,天津医科大学第二附属医院,天津医科大学第二医院; 天津医学院第二附属医院,天津市,天津市,天津市河西区平江道23号,300211,电话:+86 22 8832 8919,nan,nan,2018-12-04T19:01:46Z
34,天津市人民医院,,天津市,天津市,天津市和平区芥园道190号,300000,电话:+86 22 8772 9532,nan,nan,2018-12-04T19:01:46Z
35,天津市天和医院,,天津市,天津市,天津市和平区睦南道122号,300050,电话:+86 22 2331 7703,nan,nan,2018-12-04T19:01:46Z
36,天津市眼科医院,,天津市,天津市,天津市和平区甘肃路4号,300020,电话:+86 22 2731 3336,nan,nan,2018-12-04T19:01:46Z
37,天津市第三中心医院,,天津市,天津市,天津市河东区津塘路83号,300170,电话:+86 22 8411 2114传真：022-24315132,nan,nan,2018-12-04T19:01:46Z
38,天津市第四中心医院,,天津市,天津市,天津市河北区中山路1号,300140,电话:+86 22 2623 1175 咨询电话： 800-6222211 传真：022-26183057,nan,nan,2018-12-04T19:01:47Z
39,天津市胸科医院,,天津市,天津市,天津市津南区台儿庄南路261号,300051,电话:导诊台：88185114 ; 门办：88185111 ;医保：88185277;医政：88185171 院办：88185338,nan,nan,2018-12-04T19:01:47Z
40,天津爱尔眼科,,天津市,天津市,天津市南开区复康路102号,300190,电话:+86 22 2361 6688,nan,nan,2018-12-04T19:01:47Z
41,天津市精华医院,,天津市,天津市,天津市东丽区医院,300300,电话:022-24462347,nan,nan,2018-12-04T19:01:47Z
42,天津市津西医院,,天津市,天津市,天津市河西区环湖西路7号,300060,电话:022-23516965,nan,nan,2018-12-04T19:01:47Z
43,复旦大学附属中山医院,,上海市,上海市,上海市徐汇区枫林路180号,200032,电话:021-64041990,nan,nan,2018-12-04T19:01:47Z
44,上海市第一人民医院,上海第一人民医院,上海市,上海市,上海市虹口区海宁路100号,200080,电话:021-63240090,nan,nan,2018-12-04T19:01:47Z
45,复旦大学附属华山医院,,上海市,上海市,上海乌鲁木齐中路12号,200040,电话:021-52889999传真：021-62489191,nan,nan,2018-12-04T19:01:47Z
46,上海交通大学附属仁济医院,上海第二医科大学附属仁济医院,上海市,上海市,上海市山东中路145号,200127,电话:021-58752345 传真：021-58395057,nan,nan,2018-12-04T19:01:48Z
47,上海瑞金医院,,上海市,上海市,上海市瑞金二路197号(永嘉路口),200231,"电话:021-64370045(总机),021-64717398(远洋分院),02167888999(北院)",nan,nan,2018-12-04T19:01:48Z
48,上海交通大学医学院附属新华医院,,上海市,上海市,上海市杨浦区控江路1665号,200092,电话:021-2507-8999,nan,nan,2018-12-04T19:01:48Z
49,上海市肺科医院,,上海市,上海市,上海市杨浦区政民路507号,200433,电话:021-65115006,nan,nan,2018-12-04T19:01:48Z
50,上海市胸科医院,,上海市,上海市,上海市淮海西路241号,200030,"电话:  021-63850000(预约挂号),021-22200000(总机),021-62821990(咨询)",nan,nan,2018-12-04T19:01:48Z
51,上海曙光医院,,上海市,上海市,上海市普安路185号,200000,"电话:  021-20256666(总机),021-53827435(西院专家门诊咨询),021-53827537(西院特需预约),021-63855617(名老专家咨询预约)",nan,nan,2018-12-04T19:01:48Z
52,复旦大学医学院附属肿瘤医院,上海市肿瘤医院,上海市,上海市,上海市零陵路399号,200032,电话: 021-64175590传真：021-6417 4774,nan,nan,2018-12-04T19:01:48Z
53,复旦大学附属金山医院,,上海市,上海市,中国上海金山区龙航路1508号,201508,电话:021-34189990 传真：021-67226910,nan,nan,2018-12-04T19:01:48Z
54,上海市第十人民医院,,上海市,上海市,上海市延长中路301号,200072,"电话:021-66300588(总机),021-66303643(服务台咨询热线)",nan,nan,2018-12-04T19:01:48Z
55,上海市东方医院,上海市浦东中心医院,上海市,上海市,上海市浦东新区即墨路150号.,200120,电话: 021-38804518,nan,nan,2018-12-04T19:01:49Z
56,复旦大学附属眼耳鼻喉科医院,,上海市,上海市,上海市徐汇区汾阳路83号,200031,电话:+86 21 6437 7134FAX：（021）64377151 （分院） TEL：（021）58835588,nan,nan,2018-12-04T19:01:49Z
57,上海同济医院,,上海市,上海市,上海市普陀区新村路389号,200065,电话:021-56051080(本部总机)；021-66111441(门诊咨询)；021-66111451(特需门诊)；021-66347124(大华门诊部咨询),nan,nan,2018-12-04T19:01:49Z
58,上海和平眼科医院,,上海市,上海市,上海虹口区伊敏河路61号,200437,电话:+86 21 5589 0118,nan,nan,2018-12-04T19:01:49Z
59,上海中医药大学附属普陀医院,,上海市,上海市,上海市普陀区兰溪路164号,200062,电话:021-62572723；传真号码：021-62541705,nan,nan,2018-12-04T19:01:49Z
60,重庆医科大学附属第一医院,重庆医科大学第一医院,重庆市,重庆市,重庆市渝中区袁家岗友谊路1号,400016,电话:023-68811360,nan,nan,2018-12-04T19:01:49Z
61,重庆三峡中心医院,,重庆市,重庆市,重庆万州区新城路165号,404000,电话:+86 23 5812 2622,nan,nan,2018-12-04T19:01:49Z
62,重庆医科大学附属第二医院,,重庆市,重庆市,中国重庆市临江路76号,400010,电话:医院总机：023-63693000　　门诊询问处：023-63693138  门诊办公室：023-63693164　 夜间挂号咨询：023-63693134      急诊专线：023-63693003　　 体检中心：023-63693239       医务处：023-63822815　　  院总值班：023-63832133         纪检监察：023-63693372　 传真：023-63711527,nan,nan,2018-12-04T19:01:50Z
63,重庆医科大学附属儿童医院,,重庆市,重庆市,重庆市渝中区中山二路136号,400014,电话:023-63622984 023-63620593 分院电话：023-61966227,nan,nan,2018-12-04T19:01:50Z
64,重庆普瑞眼科医院,,重庆市,重庆市,重庆市渝中区中山一路210号临华大厦B座,400013,电话:+86 23 6350 8383,nan,nan,2018-12-04T19:01:50Z
65,重庆市垫江县人民医院,,重庆市,重庆市,重庆市垫江县桂溪镇北外街89号,408300,电话:+86 23 7469 6113,nan,nan,2018-12-04T19:01:50Z
66,重庆市涪陵中心医院,,重庆市,重庆市,重庆市涪陵区高笋塘路2号,408000,电话:020-72226100传真：72224460 党委办公室：72226004 72221837(传真)    行政办公室：72226100 72224460(传真),nan,nan,2018-12-04T19:01:50Z
67,重庆医科大学附属永川医院,,重庆市,重庆市,重庆市永川区萱花路439号,402160,电话：023-85381609 传真：023-85368112人事科：023-85381611,nan,nan,2018-12-04T19:01:50Z
68,重庆市第九人民医院,第九人民医院,重庆市,重庆市,重庆市重庆市北碚区嘉陵村69号,400700,电话:023-68209538 总值班室电话：023-68865991临床服务中心咨询电话：023-63221327投诉电话：023-68867927,nan,nan,2018-12-04T19:01:50Z
69,重庆新城医院,,重庆市,重庆市,重庆市大渡口区八桥街71号,400084,电话:+86 23 6891 7720,nan,nan,2018-12-04T19:01:50Z
70,山东省立医院,,山东省,济南市,济南市经五纬七路324号,250021,电话：0531-87938911,nan,nan,2018-12-04T19:01:50Z
71,山东大学齐鲁医院,,山东省,济南市,济南市文化西路107号,250012,电话:+86 531 8216 9114,nan,nan,2018-12-04T19:01:51Z
72,山东省千佛山医院,,山东省,济南市,济南市经十路16766号,250014,电话:0531-82968900 转各科室 急救电话：0531-82969995,nan,nan,2018-12-04T19:01:51Z
73,山东大学第二医院,,山东省,济南市,山东省济南市北园大街247号,250033,电话:+86 531 8587 5455,nan,nan,2018-12-04T19:01:51Z
74,济南市第四人民医院,,山东省,济南市,济南市天桥区师范路50号,250031,电话:+86 531 8595 1785咨询热线：0531－81313114 传真号码：0531-85800741,nan,nan,2018-12-04T19:01:51Z
75,济南市第一医院,,山东省,济南市,济南市历下区大明湖路132号,250011,电话:+86 531 8630 2156电话:0531-86302126,nan,nan,2018-12-04T19:01:51Z
76,济南市中心医院,,山东省,济南市,济南市解放路105号,250013,电话：0531-85695114 客户服务&投诉电话0531- 85695206,nan,nan,2018-12-04T19:01:51Z
77,章丘市人民医院,,山东省,济南市,章丘市明水汇泉路1920号,250200,电话:0531-83251203   83251199,nan,nan,2018-12-04T19:01:51Z
78,山东省眼科医院,,山东省,济南市,山东省济南市经四路372号,250021,电话:0531-81276111,nan,nan,2018-12-04T19:01:51Z
79,山东省交通医院,,山东省,济南市,山东省济南市无影山中路12号,250031,电话:总机：0531－85953277转各科；咨询热线：0531－89176999、89176777 急救电话：0531－85959955,nan,nan,2018-12-04T19:01:51Z
80,济南明水眼科医院,,山东省,济南市,山东省济南市章丘市明水清照路219号,250200,电话:0531-83216480 （办公室）0531-83235247（门诊）0531-83242567（准分子激光中心）,nan,nan,2018-12-04T19:01:52Z
81,济南市第二人民医院,,山东省,济南市,济南市槐荫区经一路148号,250022,电话：0531-87937581 传真：0531-87930188,nan,nan,2018-12-04T19:01:52Z
82,济南市立医院,,山东省,济南市,济南市经五纬七路324号,250021,电话:  0531-7938911(总机),nan,nan,2018-12-04T19:01:52Z
83,山东省警官总医院,,山东省,济南市,山东省济南市市中区英雄山路134号,250002,电话:+86 531 8216 3447,nan,nan,2018-12-04T19:01:52Z
84,济南市106医院,,山东省,济南市,山东省济南市经十西路28722号,250022,电话:0531-61311112；0531-87296666  0531-86110531,nan,nan,2018-12-04T19:01:52Z
85,青岛大学附属医院,,山东省,青岛市,青岛市江苏路16号,266003,"电话：0532-82911847(总院咨询),0532-82918181(黄岛咨询),0532-82913225(东部咨询),0532-82912729(市北院区),0532-82911219(挂号处)",nan,nan,2018-12-04T19:01:52Z
86,胶南市人民医院,,山东省,青岛市,中国青岛胶南市人民路287号,266400,"电话:0532-86163513(院办),18866221118(服务中心)",nan,nan,2018-12-04T19:01:52Z
87,莱西市第二人民医院,,山东省,青岛市,山东省莱西市威海西路11号,266600,电话:0631-8438353,nan,nan,2018-12-04T19:01:52Z
88,青岛海慈医院,,山东省,青岛市,青岛市人民路4号,266033,电话：0532-83777856、83777857（门诊服务台）　83777527（总值班）预约咨询：0532-83777800（海慈集团）预约电话：82870000（青岛市预约平台）传真：0532-83777888,nan,nan,2018-12-04T19:01:52Z
89,青岛市第八人民医院,,山东省,青岛市,青岛市李沧区峰山路84号　,266100,电话：18678989120　0532-87610127　 传真：0532-87896535,nan,nan,2018-12-04T19:01:53Z
90,青岛市立医院,青岛市医院,山东省,青岛市,青岛市胶州路1号,266011,电话:0532—82827191,nan,微信公众账号：qd-slyy,2018-12-04T19:01:53Z
91,青岛市中心医院,,山东省,青岛市,四流南路127号,266042,电话：0532-84855192 传真：0532-84863506,nan,nan,2018-12-04T19:01:53Z
92,青岛眼科医院,,山东省,青岛市,山东省青岛市燕儿岛路5号,266071,电话:（0532）85876380；24小时自动传真：（0532）85891110,nan,nan,2018-12-04T19:01:53Z
93,青岛中西医结合医院,,山东省,青岛市,山东省青岛市市南区嘉祥路3号,266002,电话：0532-82611800 82612230 传真：0532-82612230,nan,nan,2018-12-04T19:01:53Z
94,即墨市人民医院,,山东省,青岛市,中国青岛即墨市健民街4号,266200,电话:0532-88514314 0532-88512122 传真：0532-88513099,nan,nan,2018-12-04T19:01:53Z
95,胶州中心医院,,山东省,青岛市,青岛 胶州市徐州路29号,266300,电话：0532-87212301  投诉电话：87230619；传真：0532-87208844,nan,nan,2018-12-04T19:01:53Z
96,青岛大学医学院第二附属医院,,山东省,青岛市,山东省青岛市四流南路127号,266042,电话:0532-4855192、4863506,nan,nan,2018-12-04T19:01:53Z
97,平度市人民医院,,山东省,青岛市,平度市扬州路112号,266700,电话:0532-58962778,nan,nan,2018-12-04T19:01:54Z
98,莱西市人民医院,,山东省,青岛市,莱西市烟台路67号.,266600,电话:+86 532 8848 4541,nan,nan,2018-12-04T19:01:54Z
99,滨州市人民医院,,山东省,滨州市,山东省滨州市黄河七路515号,256600,电话:0543-3199999,nan,nan,2018-12-04T19:01:54Z
100,滨州市中心医院,,山东省,滨州市,山东省惠民县环城南路108号,251700,电话:0543-5322880,nan,bzszxyy@163.com sdbzjfy@163.com,2018-12-04T19:01:54Z
101,滨州医学院附属医院,,山东省,滨州市,滨州市黄河二路661号,256603,电话:+86 543 339 9999传真:0543-3257792,nan,nan,2018-12-04T19:01:54Z
102,单县中心医院,山东省单县中心医院,山东省,菏泽市,山东省单县文化路一号,274300,电话:0530-4691777,nan,nan,2018-12-04T19:01:54Z
103,菏泽市立医院,,山东省,菏泽市,山东省菏泽市曹州西路2888号,274031,电话:0530-5613311(5613322).,nan,nan,2018-12-04T19:01:54Z
104,德州市人民医院,,山东省,德州市,德州市新湖大街1751号,253014,电话:急救专线：0534-2637120    总 机：0534-2637114,nan,nan,2018-12-04T19:01:54Z
105,德州市夏津县人民医院,,山东省,德州市,山东省德州市夏津县夏津镇西关南街209号,253200,电话:+86 534 321 3679,nan,nan,2018-12-04T19:01:55Z
106,济宁医学院附属医院,济宁医学院第一教学医院,山东省,济宁市,山东省济宁市古槐路79号,272100,"电话:0537-2903399(总机),0537-2903092(咨询),0537-2903165(院办) 医院传真：0537－2213030",nan,nan,2018-12-04T19:01:55Z
107,济宁市第一人民医院,,山东省,济宁市,山东省济宁市健康路6号,272011,电话：0537-2253431,nan,nan,2018-12-04T19:01:55Z
108,兖矿集团总医院,,山东省,济宁市,邹城市矿建东路560 号,273500,电话：0537-5367018,nan,nan,2018-12-04T19:01:55Z
109,济宁市中医院,,山东省,济宁市,济宁市环城北路3号,272100,电话:0537-2312761,nan,nan,2018-12-04T19:01:55Z
110,金乡县人民医院,,山东省,济宁市,山东省金乡县金峰东路117号,272200,"电话:0537-8702744(门诊),0537-8721752(院办),0537-8702720(急救)",nan,nan,2018-12-04T19:01:55Z
111,聊城市人民医院,,山东省,聊城市,聊城市东昌西路67号,252000,电话：0635-8276110 传真：0635-8277306 电话：0635-8276110 传真：0635-8277306,nan,nan,2018-12-04T19:01:55Z
112,聊城市第二人民医院,,山东省,聊城市,临清市健康街306号,252600,电话：0635-2323120 传真：0635-2341280,nan,nan,2018-12-04T19:01:55Z
113,淄博市临淄区人民医院,,山东省,淄博市,山东省淄博市临淄区桓公路139号,255400,电话： +86 533 718 0469 传真：7180469,nan,nan,2018-12-04T19:01:55Z
114,齐都医院,,山东省,淄博市,山东省淄博市临淄区大顺路（齐园路）123号,255400,电话：0533-7328008 7312222 传真：0533-7328007,nan,nan,2018-12-04T19:01:56Z
115,淄博市妇幼保健院,,山东省,淄博市,淄博市张店区杏园东路11号,255000,"电话：0533-2182991(总机),0533-2159955(健康热线),0533-2157666(急诊),0533-2178120(新生儿转运中心)",nan,nan,2018-12-04T19:01:56Z
116,淄博市中心医院,山东淄博市中心医院,山东省,淄博市,山东省淄博市张店区共青团西路54号,255031,"电话:  0533-2360228(总院院办),0533-2360102(总院门诊),0533-3180270(北院)",nan,nan,2018-12-04T19:01:56Z
117,桓台县第一人民医院,,山东省,淄博市,山东省淄博市桓台县兴桓路1919,256400,电话:+86 533 826 2741,nan,nan,2018-12-04T19:01:56Z
118,桓台龙光医院,,山东省,淄博市,桓台县兴桓路2180号,256400,电话:,nan,nan,2018-12-04T19:01:56Z
119,日照市人民医院,,山东省,日照市,日照市泰安路126号,276826,"电话:+86 633 336 5206；0633-3365069(服务台),0633-3365210(门诊部)",nan,nan,2018-12-04T19:01:56Z
120,日照市中医医院,,山东省,日照市,日照望海路35号,276800,电话：0633-8290123 8290001,nan,nan,2018-12-04T19:01:56Z
121,烟台毓璜顶医院,,山东省,烟台市,芝罘区毓东路20号,264000,电话：0535-6691999(总机)  ,nan,nan,2018-12-04T19:01:56Z
122,栖霞市人民医院,山东省栖霞市人民医院,山东省,烟台市,栖霞市民生路259院,265300,电话:医院办公室：3376637；医院总值班：5211621,nan,nan,2018-12-04T19:01:57Z
123,招远市人民医院,,山东省,烟台市,招远市迎宾路168号,265400,电话:+86 535 821 4561,nan,nan,2018-12-04T19:01:57Z
124,莱州市人民医院,,山东省,烟台市,山东省莱州市文化东路288号,261400,电话:0535-2276666(总机),nan,nan,2018-12-04T19:01:57Z
125,烟台市莱阳中心医院,,山东省,烟台市,莱阳市昌山路111号,265200,电话：7232103；+86 535 721 2762,nan,nan,2018-12-04T19:01:57Z
126,烟台眼科医院,,山东省,烟台市,山东省烟台开发区泰山路11号,264006,电话:0535-6372230;0535-6370606,nan,nan,2018-12-04T19:01:57Z
127,烟台光明眼科医院,,山东省,烟台市,山东省烟台市龙口市通海路19号,265701,电话:0535-8995650,nan,nan,2018-12-04T19:01:57Z
128,海阳市人民医院,,山东省,烟台市,山东省海阳市海阳路73号,265100,电话：0535-3222443,nan,nan,2018-12-04T19:01:57Z
129,临沂市人民医院,沂市人民医院,山东省,临沂市,本部医疗区地址：解放路东段27号,276000,"电话: 0539-8226999(总值班),0539-8216277(急救),0539-8078000(总服务台)",nan,nan,2018-12-04T19:01:58Z
130,山东省鲁南眼科医院,,山东省,临沂市,临沂市育才路109号,276000,电话：0539-7326998,nan,nan,2018-12-04T19:01:58Z
131,临沂市肿瘤医院,,山东省,临沂市,临沂市兰山区陵园东街6号,276001,电话:0539-8314068(办公室),nan,nan,2018-12-04T19:01:58Z
132,胜利油田中心医院,,山东省,东营市,山东省东营市济南路38号,257034,电话:0546-8552282,nan,nan,2018-12-04T19:01:58Z
133,东营市人民医院,,山东省,东营市,山东省东营市东城南一路317号,257091,电话:0546-8331577,nan,nan,2018-12-04T19:01:58Z
134,泰安市中心医院,泰安市肿瘤医院,山东省,泰安市,山东省泰安市龙潭路29号,271000,电话:8224161转8765传真：(0538)8223227,nan,nan,2018-12-04T19:01:58Z
135,泰安市妇幼保健院,,山东省,泰安市,泰安市龙潭路189号,271000,电话：0538-6621056   传真：0538-6623996,nan,nan,2018-12-04T19:01:58Z
136,泰山医学院附属医院,,山东省,泰安市,泰安市泰山大街706号,271000,电话:+86 538 842 3120,nan,nan,2018-12-04T19:01:58Z
137,新汶矿业集团公司中心医院,,山东省,泰安市,山东省泰安市新泰市新汶办事处,271233,电话:0538-7300561、7875247,nan,nan,2018-12-04T19:01:59Z
138,威海市妇女儿童医院,,山东省,威海市,威海市光明路51号,264200,电话：0631-5271200传真：0631-5216911监督电话：0631-5271207,nan,nan,2018-12-04T19:01:59Z
139,威海市立医院,,山东省,威海市,威海市环翠区和平路70号,264200,"电话:0631-5287510(医务处),0631-5287508(院办公室),0631-5287855(门诊部)",nan,nan,2018-12-04T19:01:59Z
140,威海市文登中心医院,山东威海市文登中心医院,山东省,威海市,山东省威海市文登区米山东路西3号,264400,电话：0631-8474007 传真：0631-8476036,nan,nan,2018-12-04T19:01:59Z
141,威海市中医院,,山东省,威海市,威海市环翠区青岛北路29号,264200,电话：0631-5303112(院办公室),nan,nan,2018-12-04T19:01:59Z
142,潍坊市人民医院,,山东省,潍坊市,潍坊市奎文区广文街151号,261041,"电话:0536-8192599(预约),0536-8192120(急救),0536-8316120(脑科医院急救电话)",nan,nan,2018-12-04T19:01:59Z
143,潍坊仁德医院,,山东省,潍坊市,山东省潍坊市奎文区荷欢路4号,261031,电话：0536-8211113 / 8883213,nan,nan,2018-12-04T19:01:59Z
144,潍坊医学院附属医院,,山东省,潍坊市,潍坊市奎文区虞河路2428号,261031,"电话：0536-3081100(预约挂号),0536-3081118(医务科),0536-3081177(院办)",nan,nan,2018-12-04T19:01:59Z
145,益都中心医院,,山东省,潍坊市,青州市玲珑山南路4138号,262500,"电话:0536-3276732(总机),0536-3275532(医务科)；总机电话：0536-3277731",nan,nan,2018-12-04T19:01:59Z
146,诸城市人民医院,,山东省,潍坊市,诸城市南外环路59号,262200,"电话：0536-6212767,6212678",nan,nan,2018-12-04T19:02:00Z
147,昌乐县中医院,,山东省,潍坊市,潍坊市昌乐县城恒安街25号,262400,电话:（0536）6233708 　急诊电话:（0536）6222120 6230120,nan,nan,2018-12-04T19:02:00Z
148,寿光市人民医院,,山东省,潍坊市,寿光市健康街1233号,262700,电话：0536-5221652,nan,nan,2018-12-04T19:02:00Z
149,潍坊市眼科医院,,山东省,潍坊市,潍坊市奎文区幸福街199号,261041,电话:0536-2119999 / 8222120,nan,nan,2018-12-04T19:02:00Z
150,诸城市中医医院,,山东省,潍坊市,诸城市东关大街168号,262200,电话:+86 536 621 2183；+86 536 606 0999,nan,nan,2018-12-04T19:02:00Z
151,枣庄矿业集团公司中心医院,,山东省,枣庄市,山东省枣庄市薛城区陶庄镇,277011,电话： 0632-4811045,nan,nan,2018-12-04T19:02:00Z
152,枣庄矿业集团枣庄医院,,山东省,枣庄市,枣庄市市中区胜利路188号,277100,电话：0632-4071449   15589206288,nan,nan,2018-12-04T19:02:00Z
153,枣庄市立医院,,山东省,枣庄市,山东省枣庄市龙头路41号,277100,电话：0632-3318934 3227209,nan,nan,2018-12-04T19:02:00Z
154,枣庄市市中区人民医院,,山东省,枣庄市,山东省枣庄市解放中路156号,277101,电话：0632-3305556,nan,nan,2018-12-04T19:02:00Z
155,滕州市中心人民医院,,山东省,枣庄市,滕州市杏坛路181号,277500,电话:0632-5512227(总值班室),nan,nan,2018-12-04T19:02:01Z
156,莱芜市人民医院,,山东省,莱芜市,莱芜市长勺北路雪湖大街001号,271100,电话：办公室：0634-6279088 　医务科：0634-6279092　,nan,nan,2018-12-04T19:02:01Z
157,中山大学附属第一医院,中山医科大学附属第一医院; 中山医学院附属第一医院,广东省,广州市,广东省广州市中山二路58号,510080,"电话：020-28823388,87755766,87332200",nan,医院信箱/院务公开信箱：zsyyyb@mail.sysu.edu.cn 院长信箱：zsyyyz@mail.sysu.edu.cn,2018-12-04T19:02:01Z
158,中山大学附属第三医院,中山医科大学第三医院,广东省,广州市,广州市天河区 天河路600号,510630,电话：020-85253333（总机）、传真：020-85253336；电话：020-82179000（总机）、传真：020-82179557；急救电话:0753-2518120,nan,nan,2018-12-04T19:02:01Z
159,广东省人民医院,,广东省,广州市,广州市中山二路106号,510080,电话：020-83827812,nan,nan,2018-12-04T19:02:01Z
160,广东省第二人民医院,,广东省,广州市,广州市海珠区新港中路466号,510317,"电话:+86 20 8420 0366；电话:020-89168114(总机),020-89168120(急救),020-89168338",nan,nan,2018-12-04T19:02:01Z
161,广州医科大学第一附属医院,,广东省,广州市,广州市沿江路151号(原市总工对面),510120, 电话：020-83062114,nan,nan,2018-12-04T19:02:02Z
162,广州医学院第二附属医院,广州医学院附属第二医院,广东省,广州市,广州市海珠区昌岗东路250号,510260,电话：86-020-34152282,nan,nan,2018-12-04T19:02:02Z
163,广州医科大学附属第三医院,,广东省,广州市,广州市荔湾区多宝路63号,510175,"电话：020-95169(全国预约),020-81292183(24小时咨询)",nan,nan,2018-12-04T19:02:02Z
164,暨南大学附属第一医院,暨南大学医学院附属医院; 暨南大学医学院第一附属医院; 广州暨南大学医学院附属第一医院,广东省,广州市,广州市天河区黄埔大道西613号,510630,电话：(020)38688888,nan,nan,2018-12-04T19:02:02Z
165,广州中医药大学第一附属医院,,广东省,广州市,中国广州机场路16号大院,510405,电话:(020)36591912、36591222,nan,nan,2018-12-04T19:02:02Z
166,广州中医药大学祈福医院,,广东省,广州市,广东省广州市番禺区鸿福路3号,511495,电话：总机：(8620)84518222    咨询预约：(8620)84518333,nan,nan,2018-12-04T19:02:03Z
167,中山大学孙逸仙纪念医院,中山大学附属第二医院; 中山医科大学孙逸仙纪念医院,广东省,广州市,广州市沿江西路107号,510175,电话：020-81332199,nan,nan,2018-12-04T19:02:03Z
168,中山大学肿瘤医院,,广东省,广州市,广州市东风东路651号,510060,电话:+86 20 8734 3087,nan,nan,2018-12-04T19:02:03Z
169,中山大学中山眼科中心,,广东省,广州市,广州市先烈南路54号,510060,电话：020-87330000,nan,nan,2018-12-04T19:02:03Z
170,广东省中医院,,广东省,广州市,广东省广州市大德路111号,510120,"电话：020-81887233(总院),020-87351238(二沙岛分院),020-81499399(芳村分院),020-39318100(大学城分院),0756-3325088(珠海分院)",nan,nan,2018-12-04T19:02:03Z
171,广州市第一人民医院,,广东省,广州市,广州市盘福路1号,510180,电话：81048888,nan,nan,2018-12-04T19:02:03Z
172,广东省第二中医院,,广东省,广州市,广东省广州市恒福路60号,510095,电话:020-83482172，83494579 ,nan,nan,2018-12-04T19:02:03Z
173,广州市眼库,,广东省,广州市,广州市先烈南路54号,510060,电话:020-87777341 6.,nan,nan,2018-12-04T19:02:04Z
174,广州开发区医院,,广东省,广州市,广州开发区友谊路196号,510730,电话(总机)：020-82087088 传真：82224589 投诉电话：82222857  急救电话：82215583,nan,nan,2018-12-04T19:02:04Z
175,从化市人民医院,,广东省,广州市,广东省从化市街口镇新城中路64号,510900,电话：020-87922912,nan,nan,2018-12-04T19:02:04Z
176,南方医科大学第三附属医院,,广东省,广州市,广州市天河区中山大道西183号,510630,电话：020-62784188,nan,QQ咨询群：134893945,2018-12-04T19:02:04Z
177,广州协佳医院,,广东省,广州市,广州市广州大道南1698号,510288,电话：020-89324129； +86 20 8422 6509,nan,nan,2018-12-04T19:02:04Z
178,南方医科大学中西医结合医院,,广东省,广州市,广州市海珠区石榴岗路13号,510315,电话 020 - 28372924,nan,nan,2018-12-04T19:02:04Z
179,深圳市孙逸仙心血管医院,,广东省,深圳市,深圳市东门北路1021号,518020,电话：0755-25509566,nan,nan,2018-12-04T19:02:04Z
180,深圳市人民医院,,广东省,深圳市,深圳市东门北路1017号,518020,电话：25533018 　传真：25610730,nan,nan,2018-12-04T19:02:04Z
181,深圳市第二人民医院,,广东省,深圳市,深圳市福田区笋岗西路3002号,nan,电话：0755-83366388 0755-83216006,nan,nan,2018-12-04T19:02:04Z
182,深圳市宝安区第二人民医院,,广东省,深圳市,深圳市宝安区宝城16区龙井二路118号,518101,电话：27788311,nan,nan,2018-12-04T19:02:05Z
183,深圳市眼科医院,,广东省,深圳市,深圳市福田区泽田路18号,518040,电话：0755-23959600手机：075523959510传真：0755－23959500-,nan,nan,2018-12-04T19:02:05Z
184,深圳市龙岗区第三人民医院,,广东省,深圳市,深圳市龙岗区横岗街道松柏路278号,518112,电话:28608420；13714414553,nan,nan,2018-12-04T19:02:05Z
185,深圳市南山区人民医院,,广东省,深圳市,深圳市南山区桃园路89号,518000,电话：0755-26553111,nan,nan,2018-12-04T19:02:05Z
186,深圳市龙岗中心医院,,广东省,深圳市,深圳市龙岗区龙岗大道（龙岗段）1228号,518116,电话:86-755-84806933   传真:86-755-84816979,nan,nan,2018-12-04T19:02:05Z
187,深圳市第三人民医院,,广东省,深圳市,深圳市龙岗区布吉布澜路29号,518112,"电话：总机：0755-61222333, 医院传真：0755-61238928",nan,nan,2018-12-04T19:02:05Z
188,北京大学深圳医院,,广东省,深圳市,广东省深圳市福田区莲花路120,518036,电话 755-83923333,nan,nan,2018-12-04T19:02:05Z
189,东莞市人民医院,,广东省,东莞市,东莞市万江区新谷涌万道路南3号,523059,电话：0769-28637333,nan,nan,2018-12-04T19:02:05Z
190,广东省东莞市第五人民医院,东莞市太平人民医院,广东省,东莞市,广东省东莞市虎门镇虎门大道154号,523905,电话：0769-85010257；传真电话：0769-85010107,nan,nan,2018-12-04T19:02:06Z
191,东莞市东华医院,,广东省,东莞市,广东省东莞市东城路1号,523220,电话：0769-22333333(总机) 传真：0769-22471628,nan,nan,2018-12-04T19:02:06Z
192,东莞市常平医院,,广东省,东莞市,东莞市常平镇常东路（原板石大道82号）东田丽园北门正对面,523573,电话:总机：0769-83912333   服务监督电话：83821631 传真：83331040,nan,nan,2018-12-04T19:02:06Z
193,东莞友谊合作医院,,广东省,东莞市,东莞市大朗镇美景中路788号(东莞帝豪酒店对面）,523788,电话：0769-38811111 急诊：82229120 专车接送：82221120　,nan,nan,2018-12-04T19:02:06Z
194,佛山市第一人民医院,,广东省,佛山市,广东省佛山市禅城区岭南大道北81号,528000,电话：0757-83163155 电话预约挂号：114 急救中心电话：83168316 医院总机：0757-83833633转各科,nan,nan,2018-12-04T19:02:06Z
195,佛山中医院,,广东省,佛山市,广东省佛山市亲仁路6号,528000,电话（总机）：0757-83063333 咨询热线 ：0757-82229933 传真：0757-82234571,nan,客服中心在线QQ：534450547,2018-12-04T19:02:06Z
196,佛山市第二人民医院,,广东省,佛山市,广东省佛山市卫国路78号,528000,总机：0757-88032111 大堂咨询电话：88032022（上班时间） 传真：0757-88032009,nan,nan,2018-12-04T19:02:06Z
197,佛山市南海区人民医院,,广东省,佛山市,佛山市佛平路40号,528200,电话:总机：0757-86332927（4线） 咨询电话：（医疗）0757-86297437 （收费）0757-86230642 急救中心电话：0757-86333611 特诊门诊电话：0757-86332927-3308 院长热线：0757-86326509,nan,nan,2018-12-04T19:02:06Z
198,佛山市顺德区第一人民医院,,广东省,佛山市,佛山市顺德区大良区蓬莱路1号,528300,电话：0757-22318000　传真：0757-22223899,nan,nan,2018-12-04T19:02:06Z
199,佛山市三水区人民医院,,广东省,佛山市,广东省佛山市三水区西南街道广海大道西16号,528100,电话:办公室：0757-87813210医务科：0757-87813211；护理部：0757-87813213；行政总值：1892728919；纪检监察室：0757-87813083,nan,nan,2018-12-04T19:02:07Z
200,广东省佛山市南海金沙医院,,广东省,佛山市,广东省佛山市金沙镇城区,528223,电话:   0757-86613816,nan,nan,2018-12-04T19:02:07Z
201,广东省农垦中心医院,,广东省,湛江市,广东省湛江市霞山区人民大道中2号,524002,电话:急诊专线：0759—2633120、2633663,nan,nan,2018-12-04T19:02:07Z
202,廉江市人民医院,,广东省,湛江市,广东省湛江市廉江市人民大道中30号,524400,电话：0759-6623129,nan,nan,2018-12-04T19:02:07Z
203,湛江中心人民医院,,广东省,湛江市,广东省湛江市赤坎区寸金路2号,524037,电话：0759—3157201医院传真：0759—3157101,nan,nan,2018-12-04T19:02:07Z
204,湛江市第二人民医院,,广东省,湛江市,广东省湛江市霞山区民有路12号,524003,电话:0759-2372200急诊电话:0759-2224417    2372160,nan,nan,2018-12-04T19:02:07Z
205,茂名市人民医院,,广东省,茂名市,广东省茂名市为民路101号,525000,电话：0668-2922577,nan,nan,2018-12-04T19:02:07Z
206,高州市人民医院,,广东省,茂名市,高州市西关路89号市人民医院,525200,电话：0668-6666796，13580018619 传真：0668- 6697752,nan,nan,2018-12-04T19:02:07Z
207,江门市五邑中医院,,广东省,江门市,中国广东省江门市华园东路30号,529000,电话:总机：（0750）3509898转各科 3509999 传真：（0750）3516266投诉电话：（0750）3509819、3509898转3219,nan,nan,2018-12-04T19:02:07Z
208,江门市中心医院,,广东省,江门市,江门市北街海旁街23号,529030,电话：0750-3165500 传真：0750-3375441；急诊电话：0750-3373123 交通事故紧急救护中心电话：0750-3120120,nan,nan,2018-12-04T19:02:08Z
209,江门市新会新希望眼科医院,,广东省,江门市,广东省江门市新会区圭峰东路26号,529100,电话：0750-6173333,nan,nan,2018-12-04T19:02:08Z
210,韶关粤北人民医院,广东省粤北人民医院,广东省,韶关市,广东省韶关市惠民南路133,512025,电话:+86 751 810 1207,nan,nan,2018-12-04T19:02:08Z
211,韶关市第一人民医院,,广东省,韶关市,广东省韶关市东堤南路33号,512000,电话:医院办公室：8875080 （办公） 咨询电话：8877120（全天） 急救直拨电话：8877120,nan,nan,2018-12-04T19:02:08Z
212,中山大学附属第五医院,,广东省,珠海市,广东省珠海市香洲区梅华东路52号,519000,电话:+86 756 252 8888,nan,nan,2018-12-04T19:02:08Z
213,汕头大学医学院第二附属医院,,广东省,汕头市,汕头市东厦北路69号,515041,电话:总机：0754-88915666医院传真：0754-88346543,nan,nan,2018-12-04T19:02:08Z
214,汕头大学医学院附属肿瘤医院,,广东省,汕头市,广东省汕头市饶平路7号,515031,电话:总机：88555844,nan,nan,2018-12-04T19:02:08Z
215,汕头大学医学院第一附属医院,,广东省,汕头市,广东省汕头市长平路57号,515041,电话:0754-88258290(总机)；0754-88259850,nan,stydfy@pub.shantou.gd.cn / xjchen@stu.edu.cn,2018-12-04T19:02:08Z
216,汕头市中心医院,,广东省,汕头市,广东省汕头市外马路114号,515031,"电话:0754-88550450(总机),0754-88550766(办公室)",nan,nan,2018-12-04T19:02:09Z
217,中山市人民医院,广东省中山市人民医院,广东省,中山市,广东省中山市孙文东路2号,528403,电话：0760-88823566(总机)、89880000 院总值电话：88823818；传真：0760-88841707,nan,nan,2018-12-04T19:02:09Z
218,中山市东凤人民医院,,广东省,中山市,中山市东凤镇厚德路9号,528425,电话:总机：0760-22611576转各科 传真：0760-22635783,nan,nan,2018-12-04T19:02:09Z
219,中山火炬开发区医院,,广东省,中山市,广东省中山市火炬开发区南祥路6号,528437,电话：0760-28106120 传真：0760-28106120,nan,nan,2018-12-04T19:02:09Z
220,汕尾市人民医院,,广东省,汕尾市,广东省汕尾市民主广场二巷22号,516600,电话:0660-3801050,nan,nan,2018-12-04T19:02:09Z
221,肇庆市第一人民医院,广东肇庆市第一人民医院,广东省,肇庆市,广东省肇庆市端州区东岗东路9号,526000,电话：0758-2832139、2102860　-　医务科电话：0758-2102818　-　行风监督电话：0758-2102890、2102893　-　行政值班电话：18902368689,nan,nan,2018-12-04T19:02:09Z
222,河源市东源光明眼科医院,,广东省,河源市,广东省河源市源城区长塘路31号,517002,电话:0762-3319555,nan,nan,2018-12-04T19:02:11Z
223,普宁市杨庆寿眼科医院,,广东省,揭阳市,广东省揭阳市普宁市立新路与三二四国道交叉口处,515321,电话:0663-2313003,nan,nan,2018-12-04T19:02:11Z
224,惠州第三人民医院,,广东省,惠州市,广东省惠州市惠城区桥东学背街1号,516002,电话：0752-2359888 传真：0752-2255119,nan,nan,2018-12-04T19:02:11Z
225,江苏省人民医院,,江苏省,南京市,南京市广州路300号,210029,电话：025-83714511  025-83718836,nan,nan,2018-12-04T19:02:11Z
226,南京市第一医院,,江苏省,南京市,本部:南京市长乐路68号,210012,电 话： 025-52271000(本部总机) |400-928-1199(免费导医咨询热线) |025-52887000(南院),http://www.njsdyyy.com/,nan,2018-12-04T19:02:11Z
227,南京市鼓楼医院,,江苏省,南京市,南京市中山路321号,210008,"电话:025-83105555(专家门诊预约),025-83304616(总机),025-83106666(总机)",nan,nan,2018-12-04T19:02:12Z
228,江苏省中医院,,江苏省,南京市,南京市白下区汉中路155号,210029,电话：025-86618472、86518612、86617141-20300/20130,nan,nan,2018-12-04T19:02:12Z
229,南京医科大学附属眼科医院,,江苏省,南京市,南京市汉中路138号,210029,电话：025--86677777 咨询电话：025--86677702,nan,nan,2018-12-04T19:02:12Z
230,东南大学附属中大医院,,江苏省,南京市,南京市丁家桥87号,210009,电话：025-83272111 咨询投诉 ：025-83272222,nan,nan,2018-12-04T19:02:12Z
231,江苏省肿瘤医院,,江苏省,南京市,南京市百子亭42号,210009,电话：025-83283364,nan,nan,2018-12-04T19:02:12Z
232,南京爱尔眼科医院,,江苏省,南京市,南京市秦淮区仙鹤街100号,210006,电话:+86 25 6859 0120,nan,nan,2018-12-04T19:02:12Z
233,南京东南眼科医院,,江苏省,南京市,南京市苜蓿园大街36号,210000,电话：400-9985-120 / 025-84877188,nan,nan,2018-12-04T19:02:12Z
234,南京市第二医院,,江苏省,南京市,江苏省南京市钟阜路1-1号,210003,电话：025-83626000 传真：025-83626060,nan,nan,2018-12-04T19:02:12Z
235,南京市儿童医院,,江苏省,南京市,南京市广州路72号,210093,电话：025-83116969,nan,nan,2018-12-04T19:02:12Z
236,南京市胸科医院,,江苏省,南京市,南京市广州路215号,210029,电话：025-83728558,nan,nan,2018-12-04T19:02:13Z
237,江苏省第二中医院,,江苏省,南京市,南京市南湖路23号,210017,电话：025-86405066,nan,nan,2018-12-04T19:02:13Z
238,江苏省中西医结合医院,,江苏省,南京市,江苏省南京市红山路十字街100号,210028,电话：025-85638721    传 真：025-85502829    025-85637831(院办),nan,nan,2018-12-04T19:02:13Z
239,常州市第一人民医院,江苏省常州市第一人民医院; 常州第一人民医院,江苏省,常州市,江苏省常州市局前街185号,213000,"电话:0519-68870000(总机),0519-68870101,0519-68870102,0519-9688980-1(预约电话),0519-68870333(急诊科)",nan,nan,2018-12-04T19:02:13Z
240,常州市第二人民医院,江苏省常州市第二人民医院,江苏省,常州市,江苏省常州市天宁区兴隆巷29号,213014,电话:0519-8132769,nan,nan,2018-12-04T19:02:13Z
241,金坛市中医院,,江苏省,常州市,江苏省常州市金坛市金城镇沿河西路60号,213200,电话:0519-2822351,nan,nan,2018-12-04T19:02:13Z
242,金坛市人民医院,,江苏省,常州市,江苏省常州金坛市南门大街16号,213200,电话:0519-2821553,nan,nan,2018-12-04T19:02:14Z
243,溧阳市人民医院,,江苏省,常州市,江苏省溧阳市东大街129号,213300,电话：0519-87259118,nan,nan,2018-12-04T19:02:14Z
244,常州谱瑞眼科医院,,江苏省,常州市,常武北路1号南洋广场1号楼4楼,213100,电话:0519-69891715,nan,nan,2018-12-04T19:02:14Z
245,常州市儿童医院,,江苏省,常州市,常州市天宁区延陵东路323号,213003,电话: 0519-8819919,nan,nan,2018-12-04T19:02:14Z
246,常州市武进人民医院,,江苏省,常州市,常州市永宁北路2号,213017,电话：0519-85336190（总机）,nan,nan,2018-12-04T19:02:14Z
247,无锡市人民医院,无锡市第一人民医院,江苏省,无锡市,无锡市清扬路299号（金城路与清扬路交界东南隅）,214023,电话：（0510）82700775 82700778,nan,nan,2018-12-04T19:02:14Z
248,江阴市人民医院,,江苏省,无锡市,江阴市寿山路163号,214400,"电话:  0510-86879000(总机),0510-86879023(医务科),0510-86879999(咨询),0510-86895132,0510-86895618",nan,nan,2018-12-04T19:02:14Z
249,无锡市锡山人民医院,,江苏省,无锡市,江苏省无锡市锡山区广瑞路75号,214000,电话：0510-82402084,nan,nan,2018-12-04T19:02:14Z
250,无锡市第二人民医院,,江苏省,无锡市,江苏省无锡市中山路68号,214002,电话:+86 510 8272 7501,nan,nan,2018-12-04T19:02:15Z
251,宜兴市人民医院,,江苏省,无锡市,江苏省宜兴市通贞观路75号,214200,电话：0510-87921000  投诉电话：0510-87921198 87921010,nan,nan,2018-12-04T19:02:15Z
252,无锡市第三人民医院,,江苏省,无锡市,无锡市兴源北路585号,214045,电话:总机:0510-82607391,nan,nan,2018-12-04T19:02:15Z
253,无锡市第四人民医院,,江苏省,无锡市,无锡市惠河路200号,214062,电话：0510-88682999　 传真：0510-85808820 　免费电话：8008287778,nan,nan,2018-12-04T19:02:15Z
254,无锡市滨湖人民医院,,江苏省,无锡市,江苏省无锡市梁溪路67号,214062,电话:0510-85867878,nan,nan,2018-12-04T19:02:15Z
255,苏州大学附属第一医院,苏州医学院附属第一医院; 苏州医学院附一医院,江苏省,苏州市,苏州市十梓街188号,215006,电话:总机:0512-65223637,nan,nan,2018-12-04T19:02:15Z
256,常熟市第一人民医院,,江苏省,苏州市,江苏省常熟市书院街1号,215500,电话:0512-52772228;,nan,nan,2018-12-04T19:02:15Z
257,苏州大学附属第二医院,苏州医学院附属第二医院,江苏省,苏州市,江苏省苏州市姑苏区三香路1055号,215000,电话：68282030   传真：68284303,nan,nan,2018-12-04T19:02:16Z
258,上海交通大学医学院苏州九龙医院,,江苏省,苏州市,苏州工业园区万盛街118号,215021,电话：0512-62629999,nan,nan,2018-12-04T19:02:16Z
259,张家港市第一人民医院,,江苏省,苏州市,张家港市暨阳西路68号,214421,电话: 总机(0512)56919999  |  传真(0512)56919800,nan,nan,2018-12-04T19:02:16Z
260,南通市第三人民医院,,江苏省,南通市,江苏省南通市青年中路99号,226000,电话：0513-85116000,nan,nan,2018-12-04T19:02:16Z
261,南通市第一人民医院,,江苏省,南通市,南通市孩儿巷北路6号,226001,电话：0513-85061061  85061000,nan,nan,2018-12-04T19:02:16Z
262,南通市中医院,,江苏省,南通市,江苏省南通市崇川区建设路41号,226001,电话:0513-85126072(咨询),nan,nan,2018-12-04T19:02:16Z
263,南通大学附属医院,江苏南通医学院附属医院,江苏省,南通市,南通市西寺路20号,226000,电话:+86 513 8505 2222,nan,nan,2018-12-04T19:02:16Z
264,海安县人民医院,,江苏省,南通市,江苏省海安县城中坝中路17路,226600,电话(0513)88869905/88812211 传真:(0513)88812115,nan,nan,2018-12-04T19:02:17Z
265,徐州市第一人民医院,,江苏省,徐州市,江苏省徐州市中山北路19号,221000,电话:+86 516 8580 3000；:0516-85803031(门诊),nan,nan,2018-12-04T19:02:17Z
266,徐州市中心医院,,江苏省,徐州市,徐州市解放南路199号,221009,"电话:0516-83956400(白天咨询),0516-83956401(急诊服务台),0516-96120(24小时咨询)",nan,nan,2018-12-04T19:02:17Z
267,徐州医学院第二附属医院,,江苏省,徐州市,徐州市煤建路32号,221006,电话:+86 516 8532 6119,nan,nan,2018-12-04T19:02:17Z
268,徐州医学院附属医院,江苏省徐州医学院附属医院,江苏省,徐州市,中国·徐州 淮海西路99号,221000,电话:+86 516 8560 9999,nan,nan,2018-12-04T19:02:17Z
269,徐州市第三人民医院,,江苏省,徐州市,江苏省徐州市环城路131号,221000,"电话:+86 516 8357 8960；0516-83770521(门诊),0516-83679995(急救)",nan,nan,2018-12-04T19:02:17Z
270,邳州市人民医院,,江苏省,徐州市,徐州市邳州运河镇人民南路93号,221300,电话:0516-86222476,nan,nan,2018-12-04T19:02:17Z
271,邳州市第五人民医院,,江苏省,徐州市,江苏省徐州市邳州市运西路44号,221300,电话:0516-86227732,nan,nan,2018-12-04T19:02:17Z
272,泰州市人民医院,,江苏省,泰州市,江苏省泰州市迎春路210号,225300,电话：0523-86361510门诊部：0523-86361511,nan,nan,2018-12-04T19:02:18Z
273,兴化市人民医院,,江苏省,泰州市,兴化市英武南路419号,225700,电话：0523-80260019,nan,nan,2018-12-04T19:02:18Z
274,泰州市第二人民医院,原姜堰市人民医院姜堰市人民医院,江苏省,泰州市,江苏省泰州市姜堰区健康路27号,225500,电话：0523-88222551,nan,nan,2018-12-04T19:02:18Z
275,靖江市人民医院,,江苏省,泰州市,靖江市中洲路28号,214500,电话:0523-84813246,nan,nan,2018-12-04T19:02:18Z
276,泰兴市人民医院,,江苏省,泰州市,泰兴市长征路1号,225400,电话：0523-87656001 传真：0523-87633149,nan,nan,2018-12-04T19:02:18Z
277,泰州市中医院,,江苏省,泰州市,江苏省泰州市邑庙街6号,225300,电话：0523-86611399 传真：0523-86222828,nan,nan,2018-12-04T19:02:18Z
278,苏北人民医院,扬州大学医学院附属苏北人民医院,江苏省,扬州市,江苏省扬州市南通西路98号,225001,电话:87373012,nan,nan,2018-12-04T19:02:18Z
279,扬州市第四人民医院,,江苏省,扬州市,江苏省扬州市宝应县沿河街51号,225002,电话:0514-7329896,nan,nan,2018-12-04T19:02:19Z
280,扬州市第一人民医院,,江苏省,扬州市,扬州市邗江中路368号,225001,"电话:0514-87907300,0514-82981199(西区总机),0514-87907255(东区院办)",nan,nan,2018-12-04T19:02:19Z
281,扬州友好医院,江苏油田总医院,江苏省,扬州市,江苏省扬州市四望亭路446号,225261,电话:0514-86760084;051487769101,nan,nan,2018-12-04T19:02:19Z
282,盐城市第三人民医院,,江苏省,扬州市,盐城市剧场路75号,224001,"电话:0515-88327788(总机),0515-88324765(北院办公室),81600019(南院办公室)",nan,nan,2018-12-04T19:02:19Z
283,盐城市第一人民医院,,江苏省,扬州市,江苏省盐城市越河路16号,224005,电话：0515-88592872（白天）88592269（中、晚）,nan,nan,2018-12-04T19:02:19Z
284,建湖建阳眼科医院,,江苏省,扬州市,江苏建湖县城明珠东路266号,224700,电话：0515-86261918,nan,nan,2018-12-04T19:02:19Z
285,镇江市第一人民医院,,江苏省,镇江市,江苏省镇江市电力路8号,212002,电话：0511-85231018 传真：0511-85234387,nan,nan,2018-12-04T19:02:19Z
286,江苏大学附属医院,,江苏省,镇江市,江苏省镇江市解放路438号,212001,电话:0511-85026832(门诊部电话),nan,nan,2018-12-04T19:02:19Z
287,连云港第一人民医院,,江苏省,连云港市,江苏省连云港市新浦区通灌北路182号,222002,电话：0518-85452253传真：0518-85456700,nan,nan,2018-12-04T19:02:19Z
288,连云港市第二人民医院,,江苏省,连云港市,新浦区海连东路41号,222006,电话/传真：0518-85776016电话/传真：0518-85775003　,nan,nan,2018-12-04T19:02:20Z
289,沭阳县人民医院,,江苏省,宿迁市,沭城镇 迎宾大道9号,223600,电话:急诊：0527-83551120 120 门诊部：0527-83558392(88052),nan,nan,2018-12-04T19:02:20Z
290,宿迁市人民医院,,江苏省,宿迁市,江苏省宿迁市黄河南路138号,223800,电话:0527-84239233,nan,nan,2018-12-04T19:02:20Z
291,淮安市第一人民医院,,江苏省,淮安市,江苏省淮安市淮阴区北京西路6号,223300,电话:咨询服务：84907287、88062021；门诊服务台：80872262,nan,nan,2018-12-04T19:02:20Z
292,淮安市第二人民医院,江苏淮安仁慈医院,江苏省,淮安市,淮安市淮海南路62号,223002,电话：0517-80871724门诊服务台：0517-80871636,nan,nan,2018-12-04T19:02:20Z
293,浙江大学附属第一医院,浙江大学医学院附属第一医院; 浙江医科大学附属第一医院,浙江省,杭州市,杭州市庆春路79号,310003,电话:总机：(0571)87236114 (0571)87236666 急诊电话：(0571)87236300 门诊事项：(0571)87236668,nan,nan,2018-12-04T19:02:20Z
294,浙江省人民医院,,浙江省,杭州市,浙江省杭州市上塘路158号,310024,电话:朝晖院区总机：(0571)85239988;传真：(0571)85131448；望江山总机：(0571)87091302传真：(0571)87091089,nan,nan,2018-12-04T19:02:21Z
295,浙江大学医学院附属第二医院,,浙江省,杭州市,浙江杭州市解放路88号,310009,电话:0571-87783777,nan,nan,2018-12-04T19:02:21Z
296,杭州市第一人民医院,浙江杭州市第一人民医院,浙江省,杭州市,杭州市浣纱路261号,310006,电话：0571-56008888 传真：0571-87914773,nan,nan,2018-12-04T19:02:21Z
297,杭州市萧山区第一人民医院,,浙江省,杭州市,杭州市萧山区市心南路199号,311200,电话：0571-83807999,nan,nan,2018-12-04T19:02:21Z
298,富阳市人民医院,,浙江省,杭州市,富阳市富春街道桂花路2-4号,311400,电话:0571-63102552.,nan,nan,2018-12-04T19:02:21Z
299,浙江省立同德医院,,浙江省,杭州市,杭州市古翠路234号,310012,电话:总机：0571-89972114 传真：0571-88853199,nan,nan,2018-12-04T19:02:21Z
300,浙江省中西医结合医院,,浙江省,杭州市,杭州市环城东路208号,310003,电话:0571-56109999(总机),nan,nan,2018-12-04T19:02:21Z
301,杭州市中医院,,浙江省,杭州市,杭州市体育场路453号,310007,电话:总机:0571-85827888 咨询：0571-85827511 医疗急救：0571-85827502,nan,nan,2018-12-04T19:02:21Z
302,建德市第一人民医院,,浙江省,杭州市,浙江省杭州市建德市新安江街道严州大道599号,311600,"电话:0571-64096607,传真：64721520",nan,nan,2018-12-04T19:02:22Z
303,浙江大学医学院附属邵逸夫医院,浙江医科大学附属邵逸夫医院,浙江省,杭州市,浙江杭州庆春东路3号,310016,电话：0571-86090073 传真：0571-86044817,nan,nan,2018-12-04T19:02:22Z
304,浙江省监狱中心医院,,浙江省,杭州市,杭州市江干区庆春东路54号,310016,电话:0571-86041717〓860417,nan,nan,2018-12-04T19:02:22Z
305,浙江萧山医院,,浙江省,杭州市,浙江省杭州市萧山区育才北路728号,311202,电话：0571-83865757,nan,nan,2018-12-04T19:02:22Z
306,浙江中医药大学附属第二医院,,浙江省,杭州市,杭州市潮王路318号,310005,电话:0571-85267000,nan,nan,2018-12-04T19:02:22Z
307,嘉兴市第二医院,浙江嘉兴市第二人民医院,浙江省,嘉兴市,浙江省嘉兴市环城北路,314000,电话： 0573—2080930,nan,nan,2018-12-04T19:02:22Z
308,嘉兴市第一医院,,浙江省,嘉兴市,浙江省嘉兴市中环南路1882号,314001,电话：(0573)82519999、82082937,nan,nan,2018-12-04T19:02:22Z
309,嘉兴市中医院,,浙江省,嘉兴市,嘉兴市中山东路1501号,314033,服务咨询：0573-82079137   预约挂号：0573-82063120,nan,nan,2018-12-04T19:02:23Z
310,金华市中心医院,,浙江省,金华市,金华市明月街351号,321000,"电话:0579-82338512(总机),0579-82552202(门诊服务台)",nan,nan,2018-12-04T19:02:23Z
311,义乌中心医院,,浙江省,金华市,义乌市江东路699号、南门街519号,322000,电话：0579-85209666 | 传真：0579-85209628,nan,nan,2018-12-04T19:02:23Z
312,东阳市人民医院,,浙江省,金华市,东阳市吴宁西路60号,322100,电话：0579-86856999；院办：0579-86856789,nan,nan,2018-12-04T19:02:23Z
313,东阳市中医院,,浙江省,金华市,东阳市吴宁东路14号,322100,电话：0579-86644113,nan,nan,2018-12-04T19:02:23Z
314,永康市第一人民医院,,浙江省,金华市,浙江省永康市金山西路599号,321300,电话:0579-87111834,nan,nan,2018-12-04T19:02:23Z
315,丽水市人民医院,浙江省丽水市人民医院,浙江省,丽水市,浙江省丽水市莲都区大众街15号,323000,电话:急救电话（0578）2120120或 2780120,nan,nan,2018-12-04T19:02:23Z
316,丽水市中心医院,,浙江省,丽水市,浙江省丽水市括苍路289号,323000,电话:2681018,nan,nan,2018-12-04T19:02:23Z
317,遂昌县人民医院,,浙江省,丽水市,浙江省遂昌县妙高镇北街143号,323300,电话：0578-8123421,nan,nan,2018-12-04T19:02:24Z
318,台州市第一人民医院,,浙江省,台州市,黄岩区横街路218号,318020,电话:+86 576 8401 6797,nan,nan,2018-12-04T19:02:24Z
319,浙江省台州医院,,浙江省,台州市,临海市西门街150号,317000,电话:0576-85120120(总机),nan,nan,2018-12-04T19:02:24Z
320,台州市立医院,,浙江省,台州市,台州市椒江区中山东路381号,318000,电话:0576-88858000（总机转）传真：0576-88858024,nan,nan,2018-12-04T19:02:24Z
321,台州中心医院,,浙江省,台州市,浙江省台州市经济开发区东海大道999号,318000,"电话:0576-88526222(日),0576-88526111(夜),0576-88526093(服务中心),0576-88526100(院办公室) ",nan,nan,2018-12-04T19:02:24Z
322,浙江省温岭市第一人民医院,,浙江省,台州市,浙江省温岭市太平南路190号,317500,电话：0576-86206059    传真：0576-86206222 ,nan,nan,2018-12-04T19:02:24Z
323,天台县人民医院,,浙江省,台州市,浙江省天台县劳动路335号,317200,电话：0576-83987180  传真：0576-83987221,nan,nan,2018-12-04T19:02:24Z
324,宁波市医疗中心李惠利医院,,浙江省,宁波市,宁波市兴宁路57号,315000,电话:0574-87018701(总机),nan,nan,2018-12-04T19:02:24Z
325,宁波市鄞州第二医院,,浙江省,宁波市,宁波市鄞州中心区前河路1号,315192,电话:0574-83039999(总机) ,nan,nan,2018-12-04T19:02:24Z
326,宁波市鄞州人民医院,,浙江省,宁波市,中国浙江省宁波市百丈东路251号,315000,电话:0574-87016888(总机),nan,nan,2018-12-04T19:02:25Z
327,宁波市第六医院,,浙江省,宁波市,宁波江东区中山东路1059号,315040,电话：0086-0574-87801999  传真：0086-0574-87809785,nan,nan,2018-12-04T19:02:25Z
328,宁波大学医学院附属医院,,浙江省,宁波市,宁波市人民路247号,315032,电话:0574-87035555(总机),nan,nan,2018-12-04T19:02:25Z
329,宁波市眼科医院,,浙江省,宁波市,宁波市江东区民安路855号,315040,电话:预约热线：0574-87862222 急诊热线：0574-87862207,nan,nan,2018-12-04T19:02:25Z
330,宁波市第二医院,,浙江省,宁波市,宁波市西北街41号,315010,电话:0574-83870999(总机),nan,nan,2018-12-04T19:02:25Z
331,温州医科大学附属第一医院,温州医院; 温州医学院附属第一医院,浙江省,温州市,浙江省温州市瓯海区南白象温医一院新院区,325000,电话:+86 577 5557 8166,nan,nan,2018-12-04T19:02:25Z
332,温州医科大学附属眼视光医院,,浙江省,温州市,浙江省温州市学院西路270号,325027,电话：0577-88068822传真：0577-88832083；办公室电话：0571-86795918；传真：0571-86795926,nan,nan,2018-12-04T19:02:25Z
333,湖州市第一人民医院,浙江省湖州市第一人民医院; 浙江湖州市第一人民医院,浙江省,湖州市,浙江省湖州市广场后路158号,313000,电话：0572-2023728,nan,nan,2018-12-04T19:02:26Z
334,诸暨市人民医院,,浙江省,绍兴市,诸暨市陶朱街道健民路9号,311800,电话:(0575)87182622,nan,nan,2018-12-04T19:02:26Z
335,绍兴第二医院,浙江省绍兴市第二医院,浙江省,绍兴市,浙江省绍兴市越城区延安路123号,312000,电话：(0575)88055555 监督电话：(0575)88055008,nan,nan,2018-12-04T19:02:26Z
336,绍兴市人民医院,,浙江省,绍兴市,市区中兴北路568号（昌安环岛西南侧）,312000,电话：0575-88228888 总机,nan,nan,2018-12-04T19:02:26Z
337,江山市中医院,,浙江省,衢州市,浙江省江山市江滨路38号,324100,电话:86 570 402 2528,nan,nan,2018-12-04T19:02:26Z
338,舟山医院,,浙江省,舟山市,舟山市定海区临城街道定沈路739号,316021,电话：0580-2292518预约挂号电话：0580-2022158,nan,nan,2018-12-04T19:02:26Z
339,郑州大学附属第一医院,,河南省,郑州市,郑州市建设东路1号,450000,电话:66913114电话咨询:67966261,nan,nan,2018-12-04T19:02:26Z
340,郑州市人民医院,,河南省,郑州市,郑州市黄河路33号,450053,电话：0371-65390000急诊急救电话：0371-63945120 24小时电话：400-111-6707,nan,微信：ZZRMYY8085,2018-12-04T19:02:27Z
341,河南省人民医院,,河南省,郑州市,河南省郑州市纬五路7号,450003,电话：0371-6558 0014  6558 0100传真：0371-65964376,nan,nan,2018-12-04T19:02:27Z
342,郑州市第七人民医院,,河南省,郑州市,河南省郑州市经济技术开发区经南五路17号,450006,电话：0371-60609966（上班时间） 18768895770（24小时）,nan,nan,2018-12-04T19:02:27Z
343,河南中医学院第一附属医院,,河南省,郑州市,河南省郑州市人民路19号,450000,电话：0371－96129,nan,nan,2018-12-04T19:02:27Z
344,巩义市中医院,,河南省,郑州市,河南省巩义市新华南路30号,451200,电话:0371-64356540 传真号码：0371-64356540,nan,nan,2018-12-04T19:02:27Z
345,河南省胸科医院,,河南省,郑州市,河南省郑州市纬五路1号,450000,电话：0371-65662695,nan,nan,2018-12-04T19:02:27Z
346,郑州大学第五附属医院,,河南省,郑州市,河南省郑州市二七区康复前街3号,450000,电话:,nan,nan,2018-12-04T19:02:27Z
347,郑州大学第二附属医院,,河南省,郑州市,河南省郑州市经八路2号,450014,电话：(本部院区)63934118  (北院区)63585996,nan,nan,2018-12-04T19:02:27Z
348,郑州第三人民医院,,河南省,郑州市,河南省郑州市管城区南顺城街136号,450000,电话：0371-66963333 66967683,nan,nan,2018-12-04T19:02:28Z
349,郑州市中心医院,,河南省,郑州市,郑州市桐柏路中段195号,450007,电话：0371-67690000,nan,nan,2018-12-04T19:02:28Z
350,河南省职业病医院,,河南省,郑州市,河南省郑州市二七区康复中街3号,450052,电话:+86 371 6699 7116,nan,nan,2018-12-04T19:02:28Z
351,河南省职工医学院,,河南省,郑州市,河南省郑州市新郑龙湖镇双湖大道8号,451191,电话:,nan,nan,2018-12-04T19:02:28Z
352,郑州航海医院,,河南省,郑州市,河南郑州市京广南路126号,450015,电话:0371-68719931，67136604,nan,nan,2018-12-04T19:02:28Z
353,新密市中医院,,河南省,郑州市,新密市密新北路2号,452370,电话：0371-69822996,nan,nan,2018-12-04T19:02:28Z
354,郑州大学第四附属医院,,河南省,郑州市,郑州市南阳路169号附10号,450044,电话:+86 371 6398 1473,nan,nan,2018-12-04T19:02:28Z
355,安阳市中医院,,河南省,安阳市,安阳市北关区解放路22号,455000,电话:0372-5117900(院办公室)传真：（0372）5117810,nan,nan,2018-12-04T19:02:28Z
356,河南安阳市人民医院,,河南省,安阳市,安阳市解放路72号,455000,电话：0372-5119119,nan,nan,2018-12-04T19:02:28Z
357,安阳市眼科医院,,河南省,安阳市,安阳市文明大道东段,455000,电话：0372-3679002 3679010,nan,nan,2018-12-04T19:02:29Z
358,邓州市第三人民医院,,河南省,南阳市,河南省邓州市三贤路11号,474150,电话:+86 377 6212 7999,nan,nan,2018-12-04T19:02:29Z
359,南阳市第一人民医院,,河南省,南阳市,河南省南阳市建设中路141号,473001,电话:0377-63219219,nan,nan,2018-12-04T19:02:29Z
360,南阳市中心医院,,河南省,南阳市,南阳市工农路312号,473009,"电话:  0377-63200114(查号台),0377-63200026(门诊办公室)FAX:0377-63222904",nan,nan,2018-12-04T19:02:29Z
361,南阳市中医院,,河南省,南阳市,南阳市七一路939号,473000,电话：63869888急救电话：63869999,nan,nan,2018-12-04T19:02:29Z
362,南阳市眼科医院,,河南省,南阳市,河南省南阳市梅溪路27号,473000,电话：+86 377 6322 3198传真：0377-63223198,nan,nan,2018-12-04T19:02:29Z
363,南阳医专第一附属医院,,河南省,南阳市,河南省南阳市车站南路46号,473000,电话：0377-63328308急救电话：0377-63152222 门诊办电话：0377-63328323 投诉电话：0377-63328239 网站管理电话：0377-63328055,nan,nan,2018-12-04T19:02:29Z
364,河南科技大学第一附属医院,河南医科大学第一附属医院,河南省,洛阳市,河南省洛阳市涧西区景华路24号,471000,电话:总值班0379-64830604、护理总值班0379-64830039、急救电话0379-64830995,nan,nan,2018-12-04T19:02:29Z
365,洛阳市第一人民医院,,河南省,洛阳市,洛阳市中州东路88号,471000,电话:18538882120,nan,nan,2018-12-04T19:02:30Z
366,洛阳市中心医院,,河南省,洛阳市,河南省洛阳市中州中路288号,471009,电话：0379-63892008,nan,nan,2018-12-04T19:02:30Z
367,洛阳济仁肾病医院,,河南省,洛阳市,河南省洛阳市南新安街95号,471000,电话:,nan,nan,2018-12-04T19:02:30Z
368,伊川县人民医院,,河南省,洛阳市,河南省洛阳市伊川县商城酒厂南路21号,471300,电话：0379-68333209，68332466传真号码：0379-68333209,nan,nan,2018-12-04T19:02:30Z
369,河南大学淮河医院,,河南省,开封市,河南省开封市鼓楼区包北路8号,475000,电话：0371-23906900  23906778,nan,QQ：2273296582,2018-12-04T19:02:30Z
370,开封市第一人民医院,,河南省,开封市,河南省开封市河道街85号,475000,电话： 0378-5671288,nan,nan,2018-12-04T19:02:30Z
371,开封市光明医院,,河南省,开封市,河南省开封市翠园路中段6号,475004,电话：0371-23964226 传真：0371-23960166 急诊电话：0371-23960120 监督电话：0371-23960176,nan,nan,2018-12-04T19:02:30Z
372,新乡医学院第一附属医院,,河南省,新乡市,河南新乡卫辉市健康路88号,453100,电话:0373-4402251,nan,nan,2018-12-04T19:02:30Z
373,新乡市第二人民医院,,河南省,新乡市,新乡市宏力大道389号,453002,电话:0373-2813380(总机),nan,nan,2018-12-04T19:02:30Z
374,原阳县中医院,,河南省,新乡市,河南省新乡市原阳县北干道东段,453500,电话:0373-7292127,nan,nan,2018-12-04T19:02:31Z
375,平顶山市第一人民医院,河南省平顶山市第一人民医院,河南省,平顶山市,平顶山市卫东区优越路117号,467000,电话：3399573 3399530,nan,nan,2018-12-04T19:02:31Z
376,平顶山市第二人民医院,,河南省,平顶山市,河南省平顶山市新华区曙光街49号,467000,电话：上班时间0375-4975666  中午、晚间0375-4975013,nan,nan,2018-12-04T19:02:31Z
377,平煤集团总医院,,河南省,平顶山市,河南省平頂山市礦工中路南1號院,467000,电话：0375-2729028，0375-2729333,nan,nan,2018-12-04T19:02:31Z
378,黄河三门峡医院,,河南省,三门峡市,河南省三门峡市和平路西段2号,472000,电话：0398-2289190 2823634,nan,nan,2018-12-04T19:02:31Z
379,灵宝市第一人民医院,,河南省,三门峡市,河南省灵宝市函谷路中段,472000,电话:+86 398 886 2095,nan,nan,2018-12-04T19:02:31Z
380,三门峡市中心医院,,河南省,三门峡市,河南省三门峡市崤山路,472000,电话：0398-2851752,nan,nan,2018-12-04T19:02:31Z
381,漯河市中心医院,,河南省,漯河市,漯河市人民东路56,nan,电话：0395-3330015   传真：0395-3330016,nan,nan,2018-12-04T19:02:31Z
382,临颍县人民医院,,河南省,漯河市,河南省漯河市临颖县邢庄村,nan,电话0395-8861938,nan,nan,2018-12-04T19:02:32Z
383,濮阳市油田总医院,,河南省,濮阳市,河南省濮阳市大庆路341号,nan,电话：0393-4821096,nan,nan,2018-12-04T19:02:32Z
384,濮阳市人民医院,,河南省,濮阳市,河南省濮阳市胜利西路189号,nan,电话:+86 393 440 2004,nan,nan,2018-12-04T19:02:32Z
385,濮阳市眼科医院,,河南省,濮阳市,河南省濮阳市市古城路262号,nan,电话：0393-8951958 0393-8951910,nan,nan,2018-12-04T19:02:32Z
386,信阳市中心医院,,河南省,信阳市,河南省信阳市四一路1号,464000,电话：0376-6251502(总值班),nan,nan,2018-12-04T19:02:32Z
387,焦作市第二人民医院,,河南省,焦作市,河南省焦作市民主南路17号,nan,"电话:0391-2631914(院办公室),0391-2631913(医务科)",nan,nan,2018-12-04T19:02:32Z
388,商丘市第一人民医院,,河南省,商丘市,河南省商丘市凯旋南路292号,nan,"电话:0370-3255630(门诊咨询),0370-3255637(院办)",nan,nan,2018-12-04T19:02:32Z
389,许昌市中心医院,,河南省,许昌市,河南省许昌市健安路30号,461000,电话:0374-3353059;0374-3353012,nan,nan,2018-12-04T19:02:32Z
390,华中科技大学同济医学院附属同济医院,同济医科大学附属同济医院; 湖北同济医科大学同济医院,湖北省,武汉市,湖北省武汉市解放大道1095号,430030,电话:总机：027-83662688 传真：027-83646605,nan,nan,2018-12-04T19:02:33Z
391,华中科技大学同济医学院附属协和医院,,湖北省,武汉市,湖北省武汉市解放大道1277号,430022,电话:027-85726300,nan,nan,2018-12-04T19:02:33Z
392,武汉大学中南医院,,湖北省,武汉市,武汉市武昌东湖路169号,430071,"电话:027-67812888(总机),027-67812999传真：027-67812892",nan,nan,2018-12-04T19:02:33Z
393,武汉大学人民医院,,湖北省,武汉市,湖北武汉武昌区张之洞路(原紫阳路)99号解放路238号,430060,"电话:027-88041911(总机),027-88041911转85314/027-88041911-85539(门诊导医)",nan,nan,2018-12-04T19:02:33Z
394,武汉市第一医院,,湖北省,武汉市,湖北省武汉市硚口区中山大道215号,430022,电话:027-85855900,nan,nan,2018-12-04T19:02:33Z
395,武汉爱尔眼科医院,,湖北省,武汉市,武汉市中山路481号（武昌大东门立交桥旁）,nan,电话：027-68893999,nan,nan,2018-12-04T19:02:33Z
396,荆州市第一人民医院,,湖北省,荆州市,湖北省荆州市沙市区航空路8号,434000,电话：0716-8111888;传真号码：0716-8216810,nan,nan,2018-12-04T19:02:33Z
397,荆州市第三人民医院,,湖北省,荆州市,荆州市北京东路196号,nan,电话：0716-8317979 总值班：0716-8325813 导诊咨询:0716-8325572 传真：0716-8311393,nan,nan,2018-12-04T19:02:33Z
398,公安县人民医院,,湖北省,荆州市,湖北省公安县新建街10号,nan,电话:+86 716 522 9191,nan,nan,2018-12-04T19:02:34Z
399,襄阳市第一人民医院,,湖北省,襄阳市,湖北省襄阳市樊城区解放路15号,nan,电话:+86 710 342 0098,nan,nan,2018-12-04T19:02:34Z
400,襄阳市中心医院,,湖北省,襄阳市,湖北省襄阳市襄城荆州街136号,441021,电话：医务科 3511144 院总值班室 3520081 院办 3522567,nan,nan,2018-12-04T19:02:34Z
401,谷城县人民医院,,湖北省,襄阳市,湖北省襄樊市谷城县县府街48号,nan,"电话:0710-7169612(医务科),0710-7232888(院办)",nan,nan,2018-12-04T19:02:34Z
402,老河口市第一医院,,湖北省,襄阳市,湖北省老河口市线子街9号,nan,电话:0710-8221112,nan,nan,2018-12-04T19:02:34Z
403,枣阳市第一人民医院,,湖北省,襄阳市,湖北省襄樊市枣阳市大西街29号,441200,电话：0710-6222245，6243118,nan,nan,2018-12-04T19:02:34Z
404,恩施州中心医院,,湖北省,恩施州,湖北省恩施市舞阳大道158号,445000,电话:0718-8222760〔西医部〕8224317〔中医部〕,nan,nan,2018-12-04T19:02:34Z
405,湖北民族学院附属民大医院,,湖北省,恩施州,湖北省恩施市土桥大道五峰山路2号,nan,"电话:0718-8224193(总机),0718-8240995(急救)",nan,nan,2018-12-04T19:02:34Z
406,黄石市第二医院,,湖北省,黄石市,湖北省黄石市黄石港区青山桥102号,nan,电话:0714-6512866,nan,nan,2018-12-04T19:02:35Z
407,黄石市中心医院,,湖北省,黄石市,湖北省黄石市黄石港区天津路141号,nan,电话:0714-6256686、6222877,nan,nan,2018-12-04T19:02:35Z
408,东风总医院,,湖北省,十堰市,十堰张湾区公园路59,nan,电话:0719-8221120,nan,nan,2018-12-04T19:02:35Z
409,十堰市太和医院,,湖北省,十堰市,湖北省十堰市人民南路32号,nan,电话：病人咨询中心 8801880 预约挂号电话 8801668 急诊科 8881999 投诉电话8801555 传真：8883809,nan,nan,2018-12-04T19:02:35Z
410,丹江口市第一医院,,湖北省,十堰市,湖北省十堰市丹江口市沙陀营路19号,nan,电话:+86 719 523 1373,nan,nan,2018-12-04T19:02:35Z
411,随州市中心医院,,湖北省,随州市,湖北省随州市龙门街60号,441300,电话:0722-3222805(咨询),nan,nan,2018-12-04T19:02:35Z
412,仙桃市第一人民医院,,湖北省,仙桃市,仙桃市沔州大道中段29号,nan,电话：(0728)3223533/3234806 传真：(0728)3252449,nan,nan,2018-12-04T19:02:35Z
413,仙桃市中医院,,湖北省,仙桃市,湖北省仙桃市仙桃大道51号,nan,电话：0728—3228999 传真：0728—3272259,nan,nan,2018-12-04T19:02:35Z
414,湖北江汉油田总医院,湖北江汉油田管理局第二医院,湖北省,潜江市,湖北省潜江市广华安康路3号,nan,电话:广华院区急救电话:0728-6502311    五七院区急救电话:0728-6575122传真:0728-6502037,nan,nan,2018-12-04T19:02:36Z
415,潜江市中心医院,,湖北省,潜江市,湖北省潜江市章华中路22号,433100,电话：0728-6242026,nan,nan,2018-12-04T19:02:36Z
416,宜昌市中心人民医院,湖北省宜昌市中心人民医院; 湖北宜昌地区人民医院,湖北省,宜昌市,湖北省宜昌市夷陵大道183号,443003,电话：13997700060；0717-6486947. 传真：0717-6482302,nan,yuanban＠yc-hospital.com.cn,2018-12-04T19:02:36Z
417,荆门市第二人民医院,,湖北省,荆门市,湖北省荆门市象山大道39号,448000,电话：0724-2633000,nan,nan,2018-12-04T19:02:36Z
418,荆门石化医院,,湖北省,荆门市,荆门市掇刀区白庙路15号,448000,电话:0724-2278004,nan,nan,2018-12-04T19:02:36Z
419,荆门市第一人民医院,,湖北省,荆门市,湖北省荆门市象山大道67号,448000,电话:0724-2305120,nan,nan,2018-12-04T19:02:37Z
420,黄冈市中心医院,,湖北省,黄冈市,湖北省黄冈市黄州区考棚街16号,438000,电话:医院办公室：0713-8625119 门诊办公室：0713-8625077 急救中心：0713-8625148 总值班：0713-8625054,nan,nan,2018-12-04T19:02:37Z
421,鄂州市中心医院,,湖北省,鄂州市,湖北省鄂州市文星路9号,nan,电话:0711-3222091(院办公室),nan,nan,2018-12-04T19:02:37Z
422,中南大学湘雅医院,湖南医科大学附属湘雅医院,湖南省,长沙市,中国湖南长沙市湘雅路87号,410008,电话:总机（Tel）：0731-84328888夜间值班室：0731-84327324传真（Fax）：0731-84327332,nan,nan,2018-12-04T19:02:37Z
423,中南大学湘雅二医院,,湖南省,长沙市,中国·湖南·长沙市人民中路139号,nan,电话：85294300 总机：85295888,nan,nan,2018-12-04T19:02:37Z
424,中南大学湘雅三医院,,湖南省,长沙市,湖南省长沙市河西岳麓区桐梓坡路138号,nan,电话:总值班：0731-88618508预约挂号：0731-88618577   急救电话：0731-88618120,nan,nan,2018-12-04T19:02:37Z
425,湖南省第一人民医院,湖南省人民医院,湖南省,长沙市,湖南省长沙市解放西路61号,410005,电话：0731-82278120传真：0731-82278012,nan,nan,2018-12-04T19:02:38Z
426,长沙市第三医院,,湖南省,长沙市,长沙市劳动西路176号,nan,电话：0731-85145120 85171616 85717552,nan,nan,2018-12-04T19:02:38Z
427,长沙市中医医院,,湖南省,长沙市,长沙市星沙大道22号;,410100,电话：0731-85259113（急诊）、 0731-85259000（院办公室、总值班）、0731-85259120（120急救）,nan,nan,2018-12-04T19:02:38Z
428,湖南博雅眼科医院,,湖南省,长沙市,长沙市中意一路121号,nan,电话:0731-82809999,nan,nan,2018-12-04T19:02:38Z
429,浏阳市眼科医院,,湖南省,长沙市,浏阳市 金沙北路441号,nan,电话:0731-83626977,nan,nan,2018-12-04T19:02:38Z
430,岳阳市第一人民医院,,湖南省,岳阳市,湖南省岳阳市东茅岭路39号,nan,电话：0730 8246724,nan,nan,2018-12-04T19:02:39Z
431,常德市第一人民医院,,湖南省,常德市,湖南省常德市人民路818号,nan,电话：0736—7788000,nan,nan,2018-12-04T19:02:39Z
432,常德市第三人民医院,,湖南省,常德市,常德市武陵区大高山街54号,nan,电话:0736-7199600(院办),nan,nan,2018-12-04T19:02:39Z
433,南华大学附属第二医院,,湖南省,衡阳市,湖南省衡阳市解放路30号,421001,电话:急救中心：0734-8288120 8288999（老院） ,nan,nan,2018-12-04T19:02:39Z
434,衡阳市中心医院,,湖南省,衡阳市,衡阳市雁城路12号,421001,电话：0734-8275763 传真：0734-8221679,nan,nan,2018-12-04T19:02:39Z
435,南华大学附属第一医院,,湖南省,衡阳市,衡阳市船山路69号,421001,电话：0734-8279008   传真：0734-8279009,nan,nan,2018-12-04T19:02:40Z
436,南华大学附属南华医院,,湖南省,衡阳市,衡阳市珠晖区东风南路336号;,nan,"电话:0734-8358018(院办公室),0734-8358120(急诊科)",nan,nan,2018-12-04T19:02:40Z
437,益阳市中心医院,,湖南省,益阳市,益阳市康复北路118号,nan,电话：0737-4205111(总值班)0737-4205448(医务科),nan,nan,2018-12-04T19:02:40Z
438,益阳市人民医院,,湖南省,益阳市,湖南省益阳市资阳区五一西路254号,415000,电话:0737-4324149,nan,nan,2018-12-04T19:02:40Z
439,郴州市第一人民医院,,湖南省,郴州市,郴州市罗家井102号,nan,电话：(0735)2343605,nan,nan,2018-12-04T19:02:41Z
440,郴州市第四人民医院,,湖南省,郴州市,湖南省郴州市桔井路30号,nan,电话：0735-2894120 2479120,nan,nan,2018-12-04T19:02:41Z
441,怀化市第一人民医院,怀化地区第一人民医院,湖南省,怀化市,湖南省怀化市锦溪南路144号　,418000,电话:服务热线：0745-2382411（正常上班时间） 0745-2383838（非正常上班时间）,nan,nan,2018-12-04T19:02:41Z
442,邵阳市第一人民医院,,湖南省,邵阳市,邵阳市双清区双清区通衡街39号,nan,电话：(0739)5011880 　传真:(0739)5234441,nan,nan,2018-12-04T19:02:41Z
443,邵阳市中心医院,,湖南省,邵阳市,邵阳市大祥区红旗路乾元巷36号,nan,电话：0739-5320728 传真：0739-5312599,nan,nan,2018-12-04T19:02:41Z
444,邵阳医学高等专科学校附属医院,,湖南省,邵阳市,湖南省邵阳市宝庆西路18号,nan,电话:0739-5320891,nan,nan,2018-12-04T19:02:42Z
445,湘潭市第三人民医院,,湖南省,湘潭市,湘潭市岳塘区板塘铺板马路20号,nan,电话:0731-55571175   52511120,nan,nan,2018-12-04T19:02:42Z
446,湘潭市第一人民医院,,湖南省,湘潭市,湖南省湘潭市岳塘区书院路21号,411101,电话:0732-8669005;0732-8669120;0732-8669110,nan,nan,2018-12-04T19:02:42Z
447,湘潭市中心医院,,湖南省,湘潭市,湖南省湘潭市雨湖区和平路120号,nan,电话:0731-58214787,nan,nan,2018-12-04T19:02:42Z
448,湘西自治州人民医院,,湖南省,吉首市,湖南省湘西土家族苗族自治州吉首市厂坪巷18号,416000,电话:（新院）总值班室：0743-8222417      （老院）总值班室：0743-8222417 院办公室：0743-2110288,nan,nan,2018-12-04T19:02:42Z
449,永州市人民医院,永州市中心医院,湖南省,永州市,湖南省永州市零陵区潇水西路151号,nan,电话:0746-6376301,nan,nan,2018-12-04T19:02:43Z
450,永州市眼科医院,,湖南省,永州市,湖南冷水滩零陵北路809号,nan,电话:+86 746 841 7809,nan,nan,2018-12-04T19:02:43Z
451,株洲市第一医院,株洲市第二医院; 株洲铁路医院,湖南省,株洲市,湖南省株洲市车站路24号,nan,电话:0733-8223751,nan,nan,2018-12-04T19:02:43Z
452,涟源钢铁集团有限公司职工医院,,湖南省,娄底市,湖南省娄底市娄星,417009,电话：0738-8614573 8662193,nan,nan,2018-12-04T19:02:43Z
453,河北医科大学第二医院,,河北省,石家庄市,河北省石家庄市和平西路215号,50000,电话：0311-87046901 ,nan,nan,2018-12-04T19:02:44Z
454,河北医科大学第三医院,,河北省,石家庄市,河北省石家庄市新华区自强路139号,nan,电话:0311-88603000(总机),nan,nan,2018-12-04T19:02:44Z
455,河北省人民医院,,河北省,石家庄市,河北省石家庄市和平西路348号,50051,电话:0311-85989696(总机),nan,nan,2018-12-04T19:02:44Z
456,河北医科大学第四医院,河北医学院第四医院,河北省,石家庄市,河北省石家庄市健康路12号,nan,电话:+86 311 6033 5756,nan,nan,2018-12-04T19:02:44Z
457,石家庄肾病医院,,河北省,石家庄市,石家庄市新华区飞翼路5号,nan,电话：0311-89261550,nan,nan,2018-12-04T19:02:45Z
458,石家庄市第一医院,,河北省,石家庄市,石家庄市长安区范西路36号,50011,电话：0311-86919000,nan,nan,2018-12-04T19:02:45Z
459,石家庄市第一眼科医院,,河北省,石家庄市,石家庄市平安北大街12号（市一中对过）,nan,电话：89895333 值班电话：89895300,nan,nan,2018-12-04T19:02:45Z
460,唐钢医院,,河北省,唐山市,唐山市路北区缸窑路荣华道1号,nan,电话：0315-2707000,nan,nan,2018-12-04T19:02:45Z
461,唐山工人医院,,河北省,唐山市,河北省唐山市文化路27号,nan,电话:0315-2821821(总机),nan,nan,2018-12-04T19:02:45Z
462,河北联合大学附属医院,,河北省,唐山市,唐山市路北区建设南路73号,63000,"电话:0315-3725358,0315-3725357,0315-3726120",nan,nan,2018-12-04T19:02:45Z
463,开滦总医院,,河北省,唐山市,唐山市新华东道57号 开滦总医院,63000,电话：0315-3022243,nan,nan,2018-12-04T19:02:45Z
464,唐山凤凰妇科医院,,河北省,唐山市,唐山市路北区大里路166号,nan,电话：0315-5903333,nan,nan,2018-12-04T19:02:46Z
465,唐山市眼科医院,,河北省,唐山市,唐山市北新西道11号,63000,电话:0315-3723426,nan,nan,2018-12-04T19:02:46Z
466,唐山市中医医院,,河北省,唐山市,河北省唐山市康庄道6号,nan,电话:0315-3728700,nan,nan,2018-12-04T19:02:46Z
467,河北北方学院附属第一医院,,河北省,张家口市,河北省张家口市长青路12号,nan,电话：0313-8043588,nan,nan,2018-12-04T19:02:46Z
468,张家口第四医院,,河北省,张家口市,张家口市桥西区明德北街26号,nan,电话:0313-8033511,nan,nan,2018-12-04T19:02:46Z
469,张家口市第一医院,,河北省,张家口市,河北省张家口市礼拜寺6巷,nan,电话：0313-8051380,nan,nan,2018-12-04T19:02:46Z
470,邢台矿业集团总医院,,河北省,邢台市,河北省邢台市桥西区新八一路,54000,电话:0319-2024138,nan,nan,2018-12-04T19:02:46Z
471,邢台市人民医院,,河北省,邢台市,红星街16号(市政府西行300米路南),54031,电话：0319-3286194,nan,nan,2018-12-04T19:02:46Z
472,邢台眼科医院,,河北省,邢台市,河北省邢台市泉北东大街399号,nan,电话: 0319-3237666(总值班)0319-3237888(院办室),nan,nan,2018-12-04T19:02:47Z
473,邢台医专第二附属医院,,河北省,邢台市,河北省邢台市钢铁北路618号,54000,电话：0319-2233192,nan,nan,2018-12-04T19:02:47Z
474,河北保定市第二医院,保定第二中心医院,河北省,保定市,河北省保定市东风西路338号,71051,电话：0312-3026666,nan,nan,2018-12-04T19:02:47Z
475,河北保定市第一医院,,河北省,保定市,保定市百花东路966号,71000,电话：0312-2096555     ,nan,nan,2018-12-04T19:02:47Z
476,唐县人民医院,,河北省,保定市,保定市-唐县向阳北街唐县人民医院,72350,电话：0312-6413166   传真：0312-6416001,nan,nan,2018-12-04T19:02:47Z
477,邯郸市中心医院,,河北省,邯郸市,邯郸市中华南大街15号,nan,"电话:0310-2118000(总机),0310-3022736(院办公室),0310-3030120(急救)",nan,nan,2018-12-04T19:02:47Z
478,冀中能源峰峰集团有限公司总医院,,河北省,邯郸市,河北省邯郸市峰峰矿区鼓山南街2号,56200,电话：0310—7735228,nan,nan,2018-12-04T19:02:47Z
479,秦皇岛市第一医院,,河北省,秦皇岛市,河北省秦皇岛市海港区文化路258号,66000,"电话:0335-5908888(总机),0335-3032042(院办公室)",nan,nan,2018-12-04T19:02:48Z
480,沧州市中心医院,,河北省,沧州市,河北省沧州市新华西路16号,nan,"电话:0317-2075627(总值班),0317-2075587(门诊咨询)",nan,nan,2018-12-04T19:02:48Z
481,承德医学院附属医院,,河北省,承德市,河北省承德市南营子大街36号,nan,电话:0314-2279596,nan,nan,2018-12-04T19:02:48Z
482,河北省三河市誉美中西医肾病医院,,河北省,廊坊市,河北省三河市燕郊经济开发区迎宾北路27号,65201,电话:,nan,nan,2018-12-04T19:02:48Z
483,福建医科大学附属第一医院,福建医学院附属第一医院,福建省,福州市,福建省福州市茶中路20号,nan,电话:0591-87983333(总机),nan,nan,2018-12-04T19:02:48Z
484,福建医科大学附属协和医院,,福建省,福州市,福建省福州市鼓楼区新权路29号,nan,电话：0591-83357896 传真：0591-87113828,nan,nan,2018-12-04T19:02:48Z
485,福建省立医院,,福建省,福州市,福建省福州市东街134号,350001,电话：0591-87557768,nan,nan,2018-12-04T19:02:48Z
486,福建省第二人民医院,,福建省,福州市,福建省福州市鼓楼区中国湖东支路13号,350003,电话:0591-87855333(总机),nan,nan,2018-12-04T19:02:49Z
487,福州市传染病医院,,福建省,福州市,鼓楼区西洪路312号,nan,电话：0591-83713358 传真：0591-83798317,nan,nan,2018-12-04T19:02:49Z
488,福建医科大学附属第二医院,福建医学院附属第二医院,福建省,福州市,福建省泉州市中山北路34号,362000,电话：0595-22791140传真：0595-22770258,nan,nan,2018-12-04T19:02:49Z
489,厦门大学附属中山医院,中山医院,福建省,厦门市,厦门市湖滨南路201-209号,361004,电话:(0592)2292201,nan,nan,2018-12-04T19:02:49Z
490,厦门大学附属第一医院,,福建省,厦门市,厦门市镇海路55号,361003,"电话:0592-2132222(预约挂号),0592-2130789(总机),0592-2137060(特需门诊)",nan,nan,2018-12-04T19:02:49Z
491,厦门市第二医院,福建省厦门市第二医院; 夏门市第二医院,福建省,厦门市,厦门市集美区盛光路566号,nan,电话:0592-6152222,nan,nan,2018-12-04T19:02:50Z
492,厦门市心脏中心,,福建省,厦门市,厦门思明区湖滨南路205,nan,电话:+86 592 229 2326,nan,nan,2018-12-04T19:02:50Z
493,厦门大学附属厦门眼科中心,,福建省,厦门市,厦门市厦禾路336号,361000,电话:+86 400 885 2777,nan,nan,2018-12-04T19:02:50Z
494,漳州市医院,,福建省,漳州市,漳州市胜利路59号,nan,电话:0596-2082030(院办公室),nan,nan,2018-12-04T19:02:50Z
495,南平市第一医院,,福建省,南平市,福建南平市延平区中山路317号,nan,电话:0599-8631861(院办公室),nan,nan,2018-12-04T19:02:50Z
496,邵武市立医院,,福建省,南平市,福建·邵武·李纲东路10号,354000,电话:0599-6227422(院办) 0599-6221861(院服务中心),nan,nan,2018-12-04T19:02:50Z
497,泉州东南医院,,福建省,泉州市,福建省泉州市丰泽区泉秀路,362000,电话:0595-22582477;0595-22588070,nan,nan,2018-12-04T19:02:51Z
498,泉州市儿童医院,,福建省,泉州市,福建省泉州市丰泽街700号,nan,电话：0595-22130158  ,nan,nan,2018-12-04T19:02:51Z
499,莆田市第一医院,,福建省,莆田市,福建省莆田市城厢区南门西路449号,nan,电话:0594-2292145(院办公室) 传真：0594-2280617,nan,nan,2018-12-04T19:02:51Z
500,莆田学院附属医院,,福建省,莆田市,莆田市荔城区东圳东路999号,351100,电话：0594-2293910 传真：0594-2330980 行政总值班：0594-2222120,nan,nan,2018-12-04T19:02:51Z
501,龙岩市第一医院,,福建省,龙岩市,福建龙岩九一北路105号,nan,电话:0597-2294813(院办公室),nan,nan,2018-12-04T19:02:51Z
502,中国医科大学附属第一医院,中国医科大学第一医院,辽宁省,沈阳市,辽宁省沈阳和平区南京街155号,nan,电话:024-83283333(总机),nan,nan,2018-12-04T19:02:51Z
503,辽宁电力中心医院血液净化中心,,辽宁省,沈阳市,沈阳市沈河区文化路68号,nan,电话:024-23891879/23929366,nan,nan,2018-12-04T19:02:51Z
504,辽宁省人民医院,,辽宁省,沈阳市,沈阳市沈河区文艺路33号,110016,电话:024-24016114(查号),nan,nan,2018-12-04T19:02:52Z
505,沈阳医学院第二附属医院,,辽宁省,沈阳市,沈阳市和平区北九马路20号,nan,电话：024-22824430,nan,nan,2018-12-04T19:02:52Z
506,中国医科大学附属第四医院,,辽宁省,沈阳市,沈阳市皇姑区崇山东路4号,110032,电话：62255001 传真：62571119,nan,nan,2018-12-04T19:02:52Z
507,中国医科大学附属盛京医院,,辽宁省,沈阳市,中国辽宁省沈阳市和平区三好街36号,110004,电话:(024)96615,nan,nan,2018-12-04T19:02:52Z
508,辽宁省金秋医院,,辽宁省,沈阳市,沈阳市沈河区小南街317号,nan,电话:024-62784567(总机),nan,nan,2018-12-04T19:02:52Z
509,沈阳爱尔眼科医院,,辽宁省,沈阳市,沈阳市和平区十一纬路11号,nan,电话：024-23251455/23251499/4-007-008-009,nan,nan,2018-12-04T19:02:52Z
510,沈阳市第四人民医院,,辽宁省,沈阳市,沈阳市皇姑区黄河南大街20号,110031,电话：024-86862514 传真：024-86861329,nan,nan,2018-12-04T19:02:52Z
511,辽宁血栓中西医结合医院,,辽宁省,沈阳市,辽宁省沈阳市苏家屯区雪松路49号,110101,电话：024-89814515;024-89116311;024-89814514,nan,nan,2018-12-04T19:02:52Z
512,大连医科大学附属第二医院,,辽宁省,大连市,大连市沙河口区中山路467号,nan,电话:0411-84671291(总机),nan,nan,2018-12-04T19:02:53Z
513,大连市友谊医院,,辽宁省,大连市,大连市中山区三八广场8号,116100,电话：0411-82718822,nan,nan,2018-12-04T19:02:53Z
514,大连大学附属新华医院,,辽宁省,大连市,大连市沙河口区万岁街156号,nan,电话：0411-84314175,nan,nan,2018-12-04T19:02:53Z
515,大连市中心医院,,辽宁省,大连市,大连市沙河口区学工街42号,116033,电话:0411-84412001(总机),nan,nan,2018-12-04T19:02:53Z
516,大连大学附属中山医院,大连大学附属医院,辽宁省,大连市,辽宁省大连市中山区解放街6号,116001,电话：0411-62893015     传真：0411-62893555,nan,nan,2018-12-04T19:02:53Z
517,大连何氏眼科医院,,辽宁省,大连市,大连市沙河口区西南路189号,nan,电话:0411-84570588,nan,nan,2018-12-04T19:02:53Z
518,锦州市中心医院,,辽宁省,锦州市,中国辽宁市锦州市古塔区上海路二段51号,nan,电话:0416-2393033,nan,nan,2018-12-04T19:02:53Z
519,辽宁医学院附属第一医院,,辽宁省,锦州市,辽宁省锦州市人民街五段二号,nan,电话:0416-4197026,nan,nan,2018-12-04T19:02:53Z
520,辽阳市中心医院,,辽宁省,辽阳市,辽阳市中华大街二段148号,nan,电话:0419-3226224(院办公室),nan,nan,2018-12-04T19:02:54Z
521,鞍钢集团公司总医院,,辽宁省,鞍山市,辽宁省鞍山市铁东区健身街3号,nan,电话:0412-6313773（办公室）、6311220（医务部）、6726450（总值班）,nan,nan,2018-12-04T19:02:54Z
522,鞍山铁西医院,,辽宁省,鞍山市,辽宁省鞍山市铁西区民主街166号,nan,电话:0412-8813788(医务科),nan,nan,2018-12-04T19:02:54Z
523,鞍山市中心医院,,辽宁省,鞍山市,辽宁省鞍山市铁东区南中华路77号,nan,电话：0412-5930000,nan,nan,2018-12-04T19:02:54Z
524,海城市中心医院,,辽宁省,鞍山市,海城市东关委四组2号,114200,电话:0412-3199052,nan,nan,2018-12-04T19:02:54Z
525,本溪市中心医院,,辽宁省,本溪市,辽宁省本溪市市府北街九号,nan,电话：0414—2215555,nan,nan,2018-12-04T19:02:54Z
526,本钢总医院,,辽宁省,本溪市,辽宁省本溪市人民路29号,100142,电话：0414-2843868,nan,nan,2018-12-04T19:02:54Z
527,抚顺市中心医院,,辽宁省,抚顺市,辽宁省抚顺市顺城区新城路中段5号,nan,电话:0413-7850576,nan,nan,2018-12-04T19:02:54Z
528,抚顺矿务局总医院,,辽宁省,抚顺市,辽宁省抚顺市新抚区中央大街24号,nan,电话:024-52533771 024-52533496,nan,nan,2018-12-04T19:02:54Z
529,朝阳市第二医院,,辽宁省,朝阳市,辽宁省朝阳市朝阳大街四段26号,nan,电话：0421-2917777 传真：0421-2919764,nan,nan,2018-12-04T19:02:55Z
530,丹东市中心医院,,辽宁省,丹东市,辽宁省丹东市振兴区人民街70号,nan,电话： 86- 0415- 6163479 传真： 86- 0415- 3197563,nan,nan,2018-12-04T19:02:55Z
531,丹东市第一医院,,辽宁省,丹东市,辽宁省丹东市元宝区宝山大街76号,nan,电话：0415-2855108,nan,nan,2018-12-04T19:02:55Z
532,盘锦市第四人民医院,,辽宁省,盘锦市,盘锦市双台子区辽河路长征街330号,nan,电话:0427-3591120,nan,nan,2018-12-04T19:02:55Z
533,辽河油田中心医院,,辽宁省,盘锦市,辽宁省盘锦市兴隆台区振兴街迎宾路26号,nan,电话:0427-7650589,nan,nan,2018-12-04T19:02:55Z
534,铁法煤业集团总医院,,辽宁省,铁岭市,辽宁省调兵山市振兴路88号,112700,电话:024-6839120,nan,nan,2018-12-04T19:02:55Z
535,铁岭市中心医院,,辽宁省,铁岭市,铁岭市银州区岭东街18号,112000,电话：024-72213309    传真：024-72213200,nan,nan,2018-12-04T19:02:55Z
536,吉林大学第一医院,,吉林省,长春市,长春市新民大街71号,nan,"电话:0431-88782222(总机),0431-85612345(院服务台) ",nan,nan,2018-12-04T19:02:55Z
537,吉林大学第二医院,,吉林省,长春市,长春市南关区自强街218号,nan,电话：0431-88796555  门诊咨询电话：0431-88796888  用药咨询电话：0431-88796313,nan,nan,2018-12-04T19:02:55Z
538,吉林大学第四医院,,吉林省,长春市,长春市东风大街2643号,nan,电话:0431-85906812(总机),nan,nan,2018-12-04T19:02:56Z
539,吉林大学中日联谊医院,,吉林省,长春市,吉林省长春市仙台大街126号,130033,电话:0431-84995222/5114,nan,nan,2018-12-04T19:02:56Z
540,吉林省肝胆医院,,吉林省,长春市,吉林省长春市绿园区景阳大路2218号,nan,电话：0431-87688310 87676566,nan,nan,2018-12-04T19:02:56Z
541,吉林省前卫医院,,吉林省,长春市,吉林省长春市朝阳区前进大街1445号,nan,电话:0431-5162501,nan,nan,2018-12-04T19:02:56Z
542,吉林心脏病医院,,吉林省,长春市,长春市自由大路108 号,130000,电话:0431-5649006,nan,nan,2018-12-04T19:02:56Z
543,北华大学附属医院,,吉林省,吉林市,吉林市解放中路12号,nan,电话:0432-62166000(总机),nan,nan,2018-12-04T19:02:56Z
544,吉林市中心医院,,吉林省,吉林市,吉林市船营区南京街4号,nan,电话：0432-62167080; 联系电话：0432-62167114; 传 真：0432-62452391,nan,nan,2018-12-04T19:02:56Z
545,吉化集团公司总医院,,吉林省,吉林市,吉林省吉林市龙潭区大同路32号,132022,电话：0432-3968926〓3037847,nan,nan,2018-12-04T19:02:56Z
546,延边大学附属医院,,吉林省,延边市,中国吉林省延吉市局子街1327号,nan,电话：(0433)2660009 2660020 传真：(0433)2513610,nan,nan,2018-12-04T19:02:56Z
547,哈尔滨医科大学附属第一医院,,黑龙江省,哈尔滨,哈尔滨市南岗区邮政街23号,nan,"电话：0451-85556000(总机),0451-85555555(预约)",nan,nan,2018-12-04T19:02:57Z
548,哈尔滨医科大学附属第二医院,,黑龙江省,哈尔滨,哈尔滨市南岗区学府路246号,150001,"电话:0451-86662961(总机),0451-86605612(门诊)",nan,nan,2018-12-04T19:02:57Z
549,哈尔滨医科大学附属第四医院,,黑龙江省,哈尔滨,哈尔滨市南岗区颐园街37号,150001,电话：0451—82576999；82576608；82576617,nan,nan,2018-12-04T19:02:57Z
550,黑龙江省医院,,黑龙江省,哈尔滨,哈尔滨市香坊区中山路82号,nan,电话：0451-88025114;急诊电话：0451-53642975传真：55662437,nan,nan,2018-12-04T19:02:57Z
551,黑龙江省邮电医院,,黑龙江省,哈尔滨,黑龙江省哈尔滨市南岗区民益街68号,nan,电话: 0451-53642677,nan,nan,2018-12-04T19:02:57Z
552,大庆油田总医院,大庆石油管理局职工医院,黑龙江省,大庆市,黑龙江省大庆市萨尔图区中康街9号,nan,电话:0459-5994114,nan,nan,2018-12-04T19:02:57Z
553,大庆市人民医院,,黑龙江省,大庆市,黑龙江省大庆市开发区建设路213号,nan,电话:0459-6612000(值班室),nan,nan,2018-12-04T19:02:57Z
554,大庆市第二医院,,黑龙江省,大庆市,黑龙江省大庆市红岗区解放一街29号,163461,电话：0459-5202636（急诊） 0459-5202621（院总值班）传真：0459-5202681,nan,nan,2018-12-04T19:02:57Z
555,大庆龙南医院,,黑龙江省,大庆市,大庆让湖路区爱国路35号,nan,电话:0459-5910114(查号台),nan,nan,2018-12-04T19:02:58Z
556,大庆眼科医院,,黑龙江省,大庆市,大庆高新技术开发区建设路267号,nan,电话：0459-8106361,nan,nan,2018-12-04T19:02:58Z
557,鸡西矿业集团总医院,,黑龙江省,鸡西市,鸡西市和平北大街158号,nan,电话:0467-2724664(总机),nan,nan,2018-12-04T19:02:58Z
558,鸡西市人民医院,,黑龙江省,鸡西市,鸡西市鸡冠区兴国中路111号,nan,电话:0467-2655678,nan,nan,2018-12-04T19:02:58Z
559,牡丹江第一人民医院,,黑龙江省,牡丹江市,黑龙江省牡丹江市爱民区建卫路4号,nan,电话:0453-6526231,nan,nan,2018-12-04T19:02:58Z
560,牡丹江市第二人民医院,,黑龙江省,牡丹江市,牡丹江市光华街179号,157013,电话：0453-6923422,nan,nan,2018-12-04T19:02:58Z
561,牡丹江医学院红旗医院,,黑龙江省,牡丹江市,黑龙江省目牡丹江市太平路1号,nan,电话:一分院电话：0453-6224739 6221913； 二分院电话：0453-6527066 6523581； 住院部地址电话：0453-6582800,nan,nan,2018-12-04T19:02:58Z
562,齐齐哈尔市第一医院,,黑龙江省,齐齐哈尔市,黑龙江省齐齐哈尔市龙沙区公园路30号,161005,电话：0452-2425981 传真:0452-2470942,nan,nan,2018-12-04T19:02:58Z
563,齐齐哈尔医学院附属第二医院,,黑龙江省,齐齐哈尔市,齐齐哈尔市建华区中华西路37号,nan,电话:0452-2739659(医务科),nan,nan,2018-12-04T19:02:59Z
564,鹤岗市人民医院,,黑龙江省,鹤岗市,黑龙江省鹤岗市电信路1号,nan,电话:0468-3855417(门诊部),nan,nan,2018-12-04T19:02:59Z
565,鹤岗市中医院,,黑龙江省,鹤岗市,向阳区红军路27号,nan,电话:0468-3237597,nan,nan,2018-12-04T19:02:59Z
566,佳木斯大学医学院第一附属医院,佳木斯医学院附属医院,黑龙江省,佳木斯市,黑龙江省佳木斯市德祥街234号,nan,电话:0454-8623779,nan,nan,2018-12-04T19:02:59Z
567,黑龙江省宝清县八五三农场职工医院,,黑龙江省,鸭山市,黑龙江省双鸭山市宝清县八五三农场场部,155630,"电话：, 0469-5388494",nan,nan,2018-12-04T19:02:59Z
568,七台河市人民医院,,黑龙江省,七台河市,黑龙江省七台河市桃山区山湖路37号,nan,电话：0464-8669108  传真：0464-8263216,nan,nan,2018-12-04T19:02:59Z
569,安徽医科大学第一附属医院,,安徽省,合肥市,合肥市绩溪路218号,230022,电话：(0551)62922114　　传真：(0551)63633742,nan,nan,2018-12-04T19:02:59Z
570,安徽省立医院,安徽省省立医院,安徽省,合肥市,安徽省合肥市庐江路17号,230001,电话:0551-62283114,nan,nan,2018-12-04T19:03:00Z
571,合肥市第一人民医院,,安徽省,合肥市,安徽省合肥市淮河路390号,nan,"电话:0551-62183114(总机),62183432(挂号室)",nan,nan,2018-12-04T19:03:00Z
572,合肥普瑞眼科医院,,安徽省,合肥市,合肥市黄山路420号(合作化南路和黄山路交口),nan,电话:0551-65127745,nan,QQ:800051020,2018-12-04T19:03:00Z
573,合肥新视眼科医院,,安徽省,合肥市,合肥徽州大道689号（徽州大道与黄山路交口往南300米）,nan,电话:400-665-1616,nan,nan,2018-12-04T19:03:00Z
574,安徽医科大学第二附属医院,,安徽省,合肥市,合肥市经济技术开发区芙蓉路678号,230601,电话:0551-63869114 传真:0551-63869400,nan,nan,2018-12-04T19:03:00Z
575,皖南医学院戈矶山医院,皖南医学院附属弋矶山医院,安徽省,芜湖市,安徽省芜湖市赭山西路2号,241001,电话:0553-5739999(总机)传真：0553-5738279,nan,nan,2018-12-04T19:03:00Z
576,皖南医学院第二附属医院,,安徽省,芜湖市,安徽省芜湖市康复路123号,nan,"电话:0553-2871904(院长办公室),0553-2871905(医务科)",nan,nan,2018-12-04T19:03:00Z
577,芜湖市第二人民医院,,安徽省,芜湖市,安徽省芜湖市九华山中路263号,241000,"电话：0553-3909339,3909019传真号码：0553-3832545",nan,nan,2018-12-04T19:03:01Z
578,皖北煤电集团总医院,,安徽省,蚌埠市,安徽省宿州市淮河西路125号,nan,电话：0557-3972555,nan,nan,2018-12-04T19:03:01Z
579,蚌埠医学院第一附属医院,第一附属医院,安徽省,蚌埠市,蚌埠市长淮路287号,nan,电话：(0552)3086384,nan,nan,2018-12-04T19:03:01Z
580,蚌埠市第三人民医院,,安徽省,蚌埠市,安徽省蚌埠市胜利中路38号,nan,电话：0552-2053939（医院办公室）， 2067333（门诊预约挂号）， 2058901（投诉办公室）， 2046358（监督电话）,nan,nan,2018-12-04T19:03:01Z
581,淮北矿工总医院,,安徽省,淮北市,安徽省淮北市长山路 1 号,235001,电话:办公室：0561-3068218;医务处：0561-3068424,nan,nan,2018-12-04T19:03:01Z
582,淮北市人民医院,,安徽省,淮北市,安徽省淮北市淮海西路66号,235000,电话：0561-3055021 传真：0561-3023717,nan,nan,2018-12-04T19:03:01Z
583,淮南东方医院集团肿瘤医院,,安徽省,淮南市,安徽省淮南市大通区九龙岗,232035,"电话：0554-6611275,2211120",nan,nan,2018-12-04T19:03:01Z
584,淮南东方医院集团总医院,,安徽省,淮南市,安徽省淮南市洞山老龙眼,232001,电话：0554-6895132 6895148,nan,nan,2018-12-04T19:03:02Z
585,淮南新华医院,,安徽省,淮南市,淮南市谢家集区健康路,232052,电话：(0554)2799222　　传真：(0554)2799111,nan,nan,2018-12-04T19:03:02Z
586,淮南东方医院集团眼科医院,,安徽省,淮南市,安徽省淮南市洞山老龙眼,232001,电话:+86 554 567 7770,nan,nan,2018-12-04T19:03:02Z
587,马鞍山市中心医院,,安徽省,马鞍山市,马鞍山市湖东北路27号,nan,电话：0555-2826791，0555--2826786  0555-2882777,nan,nan,2018-12-04T19:03:02Z
588,马鞍山市人民医院,,安徽省,马鞍山市,安徽省马鞍山市湖北路45号,nan,电话:0555-8222278 传真:0555-8222292,nan,nan,2018-12-04T19:03:02Z
589,安徽省宣城中心医院,,安徽省,宣城市,宣城市锦城南路68号,nan,电话：0563-2293023,nan,nan,2018-12-04T19:03:02Z
590,安庆市第二人民医院,,安徽省,安庆市,安庆市关岳庙街79号,246004,电话：0556-5512647,nan,nan,2018-12-04T19:03:02Z
591,池州市人民医院,,安徽省,池州市,安徽省池州市百牙中路3号,247000,电话：0566-2816080，传真：0566-2022417,nan,nan,2018-12-04T19:03:02Z
592,蒙城县第一人民医院,,安徽省,毫州市,安徽省蒙城县商城东路282号,233500,电话：0558-7623591　　传真：0558-7623591,nan,nan,2018-12-04T19:03:03Z
593,太和县人民医院,安徽太和县红十字医院,安徽省,阜阳市,安徽省太和县健康路21号,nan,电话：0558-8624951,nan,nan,2018-12-04T19:03:03Z
594,阜阳市第二人民医院,,安徽省,阜阳市,阜阳市颍州区临泉路450号,nan,电话:0558-2563930,nan,nan,2018-12-04T19:03:03Z
595,天长市人民医院,安徽省天长市人民医院,安徽省,滁州市,安徽省天长市建设东路194号；,nan,电话:0550-7026579,nan,nan,2018-12-04T19:03:03Z
596,巢湖市第二人民医院,,安徽省,巢湖市,安徽省巢湖市居巢区人民路319号,nan,电话：0565-2393799，2335100,nan,nan,2018-12-04T19:03:03Z
597,六安市人民医院,,安徽省,六安市,六安市皖西西路21号,237005,电话：400-850-8338 传真：0564-3312771,nan,nan,2018-12-04T19:03:03Z
598,南昌大学第一附属医院,,江西省,南昌市,南昌市永外正街17号,330006,电话:+86 791 869 2745,nan,nan,2018-12-04T19:03:03Z
599,江西省人民医院,,江西省,南昌市,南昌市爱国路92号,330006,电话：0791-86895506　　传真：0791-86895863,nan,nan,2018-12-04T19:03:04Z
600,南昌大学第二附属医院,,江西省,南昌市,江西省南昌市民德路1号,330006,电话:0791-86297662,nan,nan,2018-12-04T19:03:04Z
601,江西省肿瘤医院,,江西省,南昌市,南昌市北京东路519号,330029,电话：0791-8333222 8313812,nan,nan,2018-12-04T19:03:04Z
602,南昌大学第四附属医院,,江西省,南昌市,江西省南昌市西湖区广场南路133号,330003,电话：(0791)86263202,nan,nan,2018-12-04T19:03:04Z
603,南昌普瑞眼科医院,,江西省,南昌市,南昌市北京东路125号,nan, 电话:0791-86259791,nan,nan,2018-12-04T19:03:04Z
604,赣南医学院第一附属医院,,江西省,赣州市,赣州市青年路23号,nan,电话：0797-8266021,nan,nan,2018-12-04T19:03:04Z
605,赣州市人民医院,,江西省,赣州市,赣州市章贡区红旗大道17号,nan,电话:0797-8083336(预约挂号),nan,nan,2018-12-04T19:03:04Z
606,九江市第一人民医院,,江西省,九江市,九江市塔岭南路48号,nan,电话:0792-8177120；07928582052,nan,nan,2018-12-04T19:03:04Z
607,九江市中医院,,江西省,九江市,九江市庐山南路261号,nan,电话:0792-8188366(导诊台),nan,nan,2018-12-04T19:03:04Z
608,九江中山眼科医院,,江西省,九江市,浔阳区 滨江路滨江花园,nan,电话： 0792-8106888,nan,nan,2018-12-04T19:03:05Z
609,吉安市第二人民医院,,江西省,吉安市,江西省吉安市大巷口62号,nan,电话:0796—8313395,nan,QQ：800088395,2018-12-04T19:03:05Z
610,吉安市中心人民医院,,江西省,吉安市,吉安市井冈山大道106号,343000,电话：0796-8232505，8243041传真号码：0796-8232505,nan,nan,2018-12-04T19:03:05Z
611,安福县人民医院,,江西省,吉安市,安福县南街49号,343200,电话:0796-7622130,nan,nan,2018-12-04T19:03:05Z
612,宜春市第二人民医院,,江西省,宜春市,江西省宜春市中山东路475号,336000,电话：0795-3261346，3262998传真号码：0795-3262998,nan,nan,2018-12-04T19:03:05Z
613,宜春市人民医院,,江西省,宜春市,宜春市中山西路88号,nan,电话:0795-3236541(门诊部),nan,nan,2018-12-04T19:03:05Z
614,上饶市第五人民医院,,江西省,上饶市,上饶市建南路1号,nan,电话：0793-8035403,nan,nan,2018-12-04T19:03:05Z
615,南昌大学上饶医院,,江西省,上饶市,江西省上饶市信州区庆丰路31号,nan,"电话:0793-8251523(医务科),0793-8251533(院办)",nan,nan,2018-12-04T19:03:05Z
616,玉山县中医院,,江西省,上饶市,江西省上饶市玉山县冰溪镇三清大道99号,nan,电话:0793-2553784(院办),nan,nan,2018-12-04T19:03:06Z
617,景德镇市第一人民医院,,江西省,景德镇市,景德镇市中华北路317号,333000,电话：（0798）8523661  （0798）8523662,nan,nan,2018-12-04T19:03:06Z
618,萍乡市皮肤病防治所,,江西省,萍乡市,江西省萍乡市公园路112号,337000,电话：0799-6851392传真号码：0799-6851392,nan,nan,2018-12-04T19:03:06Z
619,萍乡市人民医院,,江西省,萍乡市,江西省萍乡市安源区广场路128号,337055,电话:0799-6881798,nan,nan,2018-12-04T19:03:06Z
620,广西医科大学第一附属医院,广西医科大学附属第一医院,广西壮族自治区,南宁市,广西南宁市双拥路6号,530021,"电话：0771-5359339(咨询),0771-5353014(急诊),0771-5356563(办公室)",nan,nan,2018-12-04T19:03:06Z
621,广西中医药大学附属瑞康医院,,广西壮族自治区,南宁市,广西南宁市华东路10号,nan,电话:0771-2188018(咨询),nan,nan,2018-12-04T19:03:06Z
622,广西壮族自治区人民医院,广西区人民医院,广西壮族自治区,南宁市,广西南宁市桃源路6号,530021,电话：0771-2635268  2186500  2186300(急诊)  2186009(医务部)  2186869(院办) ,nan,nan,2018-12-04T19:03:06Z
623,南宁市第二人民医院,,广西壮族自治区,南宁市,南宁市江南区淡村路13号,530031,电话:13347605309（总值班） 0771-2246258（院办） 2246479（宣传科）,nan,nan,2018-12-04T19:03:06Z
624,南宁市第八人民医院,,广西壮族自治区,南宁市,南宁市明秀西路63号,nan,电话：0771-3832821,nan,nan,2018-12-04T19:03:07Z
625,南宁市第一人民医院,,广西壮族自治区,南宁市,南宁市七星路89号,530022,电话:0771-2677885(咨询),nan,nan,2018-12-04T19:03:07Z
626,广西壮族自治区民族医院,,广西壮族自治区,南宁市,广西南宁市明秀路232号,530001,电话：0771-3112511 3112506 3133128,nan,nan,2018-12-04T19:03:07Z
627,柳州市中医院,广西中医药大学第三附属医院,广西壮族自治区,柳州市,柳州市解放北路32号,nan,电话:院办:0772-5357110传真:0772-5357111,nan,nan,2018-12-04T19:03:07Z
628,柳州市人民医院,广西医科大学第五附属医院,广西壮族自治区,柳州市,广西柳州市文昌路8号,545006,电话:0772-2662000,nan,nan,2018-12-04T19:03:07Z
629,柳州市工人医院,,广西壮族自治区,柳州市,广西柳州市柳石路1号,545005,nan,nan,nan,2018-12-04T19:03:08Z
630,柳州市红十字会医院,,广西壮族自治区,柳州市,柳州市中山东路43号,545000,电话：0772-2825195,nan,nan,2018-12-04T19:03:08Z
631,柳州铁路局中心医院,,广西壮族自治区,柳州市,广西柳州市飞鹅路利民区14号,545007,电话：0772-3923517,nan,nan,2018-12-04T19:03:08Z
632,桂林医学院附属医院,,广西壮族自治区,桂林市,桂林市乐群路15号,nan,电话:0773-2823244(咨询),nan,nan,2018-12-04T19:03:08Z
633,钦州市第二人民医院,,广西壮族自治区,钦州市,广西钦州市钦城区文峰南路219号,nan,电话:0777-2873278,nan,nan,2018-12-04T19:03:08Z
634,钦州市第一人民医院,,广西壮族自治区,钦州市,广西壮族自治区钦州市钦南区前进路44号,535000,电话：0777-2810549;0777-2824630,nan,nan,2018-12-04T19:03:08Z
635,贵港市人民医院,,广西壮族自治区,贵港市,广西壮族自治区贵港市港北区中山中路1号,nan,电话:+86 775 420 0168,nan,nan,2018-12-04T19:03:08Z
636,右江民族医学院附属医院,,广西壮族自治区,百色市,广西百色市中山二路18号,533000,电话：0776-2824233 传真：0776-2825603,nan,nan,2018-12-04T19:03:08Z
637,梧州市工人医院,,广西壮族自治区,梧州市,广西梧州市高地路南三巷一号,543001,电话：0774-2028689  传 真：0774-2028833办公电话：0774-2022076,nan,nan,2018-12-04T19:03:08Z
638,山西医科大学第一医院,,山西省,太原市,山西省太原市解放南路85号,30001,电话:0351-4639114,nan,nan,2018-12-04T19:03:09Z
639,山西省人民医院,,山西省,太原市,太原市双塔寺街29号,30012,电话：0351-4960130,nan,nan,2018-12-04T19:03:09Z
640,山西省第二人民医院,,山西省,太原市,太原市寇庄西路9号,30012,电话:7241735,nan,nan,2018-12-04T19:03:09Z
641,山西煤炭中心医院,,山西省,太原市,山西省太原市小店区学府街101号,30006,电话:0351--4119428,nan,nan,2018-12-04T19:03:09Z
642,太原市中心医院,,山西省,太原市,太原市东三道巷1号,30009,电话：0351-5656004 ,nan,nan,2018-12-04T19:03:09Z
643,山西省眼科医院,,山西省,太原市,山西省太原市府东街100号,30002,电话： 0351--8823009,nan,nan,2018-12-04T19:03:09Z
644,大同市第三人民医院,,山西省,大同市,山西省大同市新建南路医卫街1号,37008,电话：0352-5130644,nan,nan,2018-12-04T19:03:09Z
645,大同市第五人民医院,,山西省,大同市,大同市新建北路141号,nan,电话:0351-2870360,nan,QQ:1918692918,2018-12-04T19:03:09Z
646,阳煤集团总医院,,山西省,阳泉市,山西省阳泉市矿区北大西街8号,nan,电话:0353-7071041,nan,nan,2018-12-04T19:03:10Z
647,阳泉市第一人民医院,,山西省,阳泉市,阳泉市城区南大街167号,nan,"电话:0353-3030010(医务科),0353-2032472(院办)",nan,nan,2018-12-04T19:03:10Z
648,长治医学院附属和济医院,,山西省,长治市,山西省长治市太行东街271号,46011,电话：0355-2093269；急诊电话：0355-2093120,nan,nan,2018-12-04T19:03:10Z
649,长治医学院附属和平医院,,山西省,长治市,山西省长治市延安南路50号,46000,电话：0355-3128018,nan,nan,2018-12-04T19:03:10Z
650,汾西矿业集团公司职工总医院,,山西省,晋中市,山西省介休市裕华路110号,nan,电话：0354-7191120,nan,nan,2018-12-04T19:03:10Z
651,晋城煤业集团总医院,,山西省,晋城市,山西省晋城市城区北石店,nan,电话：0356-3661365,nan,nan,2018-12-04T19:03:10Z
652,晋城市人民医院,,山西省,晋城市,山西省晋城市文昌东街402,nan,电话：0356-2024091,nan,nan,2018-12-04T19:03:10Z
653,运城市眼科医院,,山西省,运城市,山西省运城地区运城市人民北路80号,44000,电话：0359-2024810，0359-2022197,nan,nan,2018-12-04T19:03:10Z
654,运城市中心医院,,山西省,运城市,运城市河东东街3690号,nan,电话：0359-6399114医院传真：0359-6396222,nan,nan,2018-12-04T19:03:10Z
655,四川大学附属华西医院,,四川省,成都市,四川省成都市武侯区国学巷37号,610041,电话：028-85422114,nan,nan,2018-12-04T19:03:11Z
656,四川省人民医院,,四川省,成都市,一环路西二段32号,610072,电话：028-87394243、87393928、87393927,nan,nan,2018-12-04T19:03:11Z
657,成都市第三人民医院,,四川省,成都市,成都市青龙街82号,nan,电话:028-86649831(总机),nan,nan,2018-12-04T19:03:11Z
658,成都成仁眼科医院,,四川省,成都市,四川省成都市沙湾路262号金洲商厦5楼,610031,电话：028-87684680，028-87687945,nan,nan,2018-12-04T19:03:11Z
659,成都医学院附属康桥眼科医院,,四川省,成都市,成都市一环路南四段洗面桥街1号,nan,电话：028-85075888 400-788-9900,nan,nan,2018-12-04T19:03:11Z
660,成都市第五人民医院,,四川省,成都市,四川省成都市温江区麻市街33号,611130,电话:028-82722252 传真: 028-82722252,nan,nan,2018-12-04T19:03:11Z
661,川北医学院附属医院,,四川省,南充市,四川省南充市顺庆区文化路63号,637000,电话：0817-2262110  门诊办公室：0817-2262212  纪委：0817-2262150,nan,nan,2018-12-04T19:03:11Z
662,南充市中心医院,,四川省,南充市,四川省南充市嘉陵区人民南路97号,nan,电话: 0817-2222207　2258622,nan,nan,2018-12-04T19:03:11Z
663,乐山市人民医院,,四川省,乐山市,乐山市市中区白塔街238号,nan,电话:0833-2119306(值班电话),nan,nan,2018-12-04T19:03:12Z
664,洪雅县人民医院,,四川省,乐山市,四川省眉山市洪雅县环东路25号,620360,电话：0833-7403778,nan,nan,2018-12-04T19:03:12Z
665,德阳市人民医院,,四川省,德阳市,四川省德阳市泰山北路一段173号,618000,电话:（TEL）：0838-2202999传真（Fax）：0838-2220098,nan,nan,2018-12-04T19:03:12Z
666,绵阳市中心医院,,四川省,绵阳市,四川省绵阳市警钟街常家巷12号,nan,电话:0816-2222566 急诊科电话:2229955 2231777,nan,微信：myszxyy,2018-12-04T19:03:12Z
667,四川绵阳四○四医院,,四川省,绵阳市,四川省绵阳市跃进路56号,nan,电话：0816-2333342,nan,nan,2018-12-04T19:03:12Z
668,四川泸州医学院附属医院,,四川省,泸州市,泸州市太平街25号,nan,电话：0830--2292219,nan,nan,2018-12-04T19:03:12Z
669,宜宾市第一人民医院,,四川省,宜宾市,宜宾市文星街65号,nan,电话：A 区 0831-8887120;B 区 0831-2310088传  真：86-831-8226170,nan,nan,2018-12-04T19:03:12Z
670,宜宾市第二人民医院,,四川省,宜宾市,四川省宜宾市北大街96号,nan,电话:0831-8252118(总机),nan,nan,2018-12-04T19:03:13Z
671,自贡市第一人民医院,,四川省,自贡市,自贡市尚义灏一支路42号,nan,电话：0813-2100694（院办公室） 0813-2100427（人事科） 预约挂号电话：0813-2121048 0813-2121067,nan,nan,2018-12-04T19:03:13Z
672,自贡市第三人民医院,,四川省,自贡市,四川省自贡市贡井区筱溪街胜利巷156号,nan,电话:医务科：0813-3303724 急救电话：0813-3301234 咨询电话：0813-3319575 投诉电话：0813-3303897,nan,nan,2018-12-04T19:03:13Z
673,达州市中心医院,,四川省,达州市,四川省达州市通川区大东街151号,nan,电话：0818-2371651（住院部）0818-2128536（门诊部）传真：0818-2381245（住院部）0818-2128536（门诊部）,nan,nan,2018-12-04T19:03:13Z
674,攀枝花市中西医结合医院,,四川省,攀枝花市,四川省攀枝花市东区炳草岗桃源街27#,617000,电话:0812-3347772,nan,nan,2018-12-04T19:03:13Z
675,西安交通大学第一医院,,陕西省,西安市,陕西省西安市雁塔区雁塔西路277号,710061,电话:+86 29 8532 3338,nan,nan,2018-12-04T19:03:13Z
676,陕西省人民医院,,陕西省,西安市,西安市友谊西路256号,710068,"电话:029-85251331转2114(总机),029-85251331转3333(门诊咨询)传 真： 029-85236987",nan,nan,2018-12-04T19:03:13Z
677,西安高新医院,,陕西省,西安市,西安市团结南路16号,nan,电话：029-96999,nan,nan,2018-12-04T19:03:13Z
678,西安市第九医院,,陕西省,西安市,陕西省西安市南二环东段151号,nan,电话：（029）82236643   (029)82322257 传真：（029）82236643,nan,nan,2018-12-04T19:03:14Z
679,西安市中心医院,,陕西省,西安市,西安市西五路161号,nan,"电话:029-87218917(总机),029-87268355(总机),029-87213507、87283020(急救中心)",nan,nan,2018-12-04T19:03:14Z
680,西安交通大学医学院第二附属医院,,陕西省,西安市,西安市西五路157号,nan,电话：029-87679325（门诊部）,nan,nan,2018-12-04T19:03:14Z
681,西安市第一医院,西安第一附属医院,陕西省,西安市,西安市南大街粉巷30号,710002,电话：029-87630969　传真：029-87630704,nan,nan,2018-12-04T19:03:14Z
682,西安市东郊第一职工医院,,陕西省,西安市,陕西省西安市万寿中路23号,710043,电话：029-83641632,nan,nan,2018-12-04T19:03:14Z
683,西电集团医院,,陕西省,西安市,陕西省西安市丰登路97号,nan,电话：029-84208888传真：029-84225889,nan,nan,2018-12-04T19:03:14Z
684,宝鸡市人民医院,,陕西省,宝鸡市,宝鸡市经二路新华巷24号,721000,电话：0917-3272900   传真：0917-3272900,nan,nan,2018-12-04T19:03:14Z
685,宝鸡市第二人民医院,,陕西省,宝鸡市,宝鸡市上马营红卫路1号,nan,电话:0917-3830407(挂号室) 3832157(院办),nan,nan,2018-12-04T19:03:15Z
686,眉县人民医院,,陕西省,宝鸡市,陕西省眉县首善镇平阳街192号,722300,电话：0917-5542760    5549002 | 传真：0917-5542760,nan,nan,2018-12-04T19:03:15Z
687,陕西省岐山县医院,,陕西省,宝鸡市,陕西省宝鸡市岐山县城东关街19号,nan,电话:0917-8212484,nan,nan,2018-12-04T19:03:15Z
688,咸阳市第二人民医院,,陕西省,咸阳市,陕西省咸阳市人民东路78号,712000,电话：029-33222222 急救电话：029-33288692,nan,nan,2018-12-04T19:03:15Z
689,陕西中医学院附属医院,,陕西省,咸阳市,陕西省咸阳市渭阳西路副2号,712000,电话:+86 29 3332 0873,nan,nan,2018-12-04T19:03:15Z
690,咸阳市第一人民医院,,陕西省,咸阳市,咸阳市毕源路副10号,nan,电话：029-33280120 33237777 | 咨询电话：33283456 | 传 真：029-33288213,nan,院长信箱：xyyy999yz@163.com 医院信箱：xyyy999@163.com,2018-12-04T19:03:15Z
691,中铁二十局中心医院,,陕西省,咸阳市,咸阳市文林路中段38号,712000,电话:029-33785192(咨询),nan,nan,2018-12-04T19:03:15Z
692,三二○一医院,,陕西省,汉中市,陕西省汉中市汉台区汉江路46号,723000,电话：0916-2383201,nan,nan,2018-12-04T19:03:15Z
693,延安大学附属医院,,陕西省,延安市,延安市宝塔区北大街43号,716000,电话：0911-2881002,nan,nan,2018-12-04T19:03:16Z
694,云南省第一人民医院,云南省人民医院,云南省,昆明市,云南省昆明市西山区金碧路157号,nan,电话:(0871)-3639921 传真:(0871)-3627731,nan,nan,2018-12-04T19:03:16Z
695,昆明医学院第一附属医院,云大医院,云南省,昆明市,中国·云南昆明西昌路295号,650032,电话:86-0871-65324888-2201 传真(Fax)：86-0871-65336015,nan,nan,2018-12-04T19:03:16Z
696,昆明医科大学第二附属医院,,云南省,昆明市,中国·云南昆明滇缅大道374号,650101,电话：86-0871-65351281 传真(Fax)：86-0871-65361017 ,nan,nan,2018-12-04T19:03:16Z
697,昆明市延安医院,,云南省,昆明市,中国云南昆明市人民东路245号,650051,电话:+86-08713211101,nan,nan,2018-12-04T19:03:16Z
698,昆明市第一人民医院,云南昆明市第一人民医院,云南省,昆明市,云南省昆明市青年路504号,650011,电话:0871-63188200(咨询),nan,nan,2018-12-04T19:03:17Z
699,云南省第三人民医院,,云南省,昆明市,云南省昆明市北京路292号,650011,电话：0871-3195858,nan,nan,2018-12-04T19:03:17Z
700,昆明法医院,,云南省,昆明市,云南省昆明市环城南路677号,nan,电话：0871-64150415 64158006 64168244,nan,nan,2018-12-04T19:03:17Z
701,云南肾脏病医院,,云南省,昆明市,云南省昆明市环城西路368号,nan,电话：+86 0871-64199391 64199883,nan,nan,2018-12-04T19:03:17Z
702,昆明爱尔眼科医院,,云南省,昆明市,云南省昆明市官渡区环城南路687号,nan,电话:0871-63137666,nan,nan,2018-12-04T19:03:17Z
703,昆明普瑞眼科医院,,云南省,昆明市,云南省昆明市五华区龙泉路29号,nan,电话:+86 871 6333 6999,nan,nan,2018-12-04T19:03:17Z
704,云南省红十字医院眼科中心,云南省红十字会医院,云南省,昆明市,贵州省贵阳市都司路128号,550000,电话：0851-5821286，5869710,nan,nan,2018-12-04T19:03:18Z
705,云南同仁新华医院,,云南省,昆明市,云南省昆明市金实小区南门小庄立交桥旁,nan,电话：0871-5723039,nan,nan,2018-12-04T19:03:18Z
706,武警云南边防总队医院,,云南省,昆明市,昆明市西山区西园路528号,nan,电话:+86 8715366696,nan,nan,2018-12-04T19:03:18Z
707,曲靖市第一人民医院,,云南省,曲靖市,云南省曲靖市麒麟区园林路1号,202150,电话：0874-3310000，0874-3311977，0874-3316971,nan,nan,2018-12-04T19:03:18Z
708,曲靖市第二人民医院,,云南省,曲靖市,云南省曲靖市麒麟西路167号,655000,电话：0874-3315172,nan,nan,2018-12-04T19:03:18Z
709,大理州第一人民医院,,云南省,大理州,云南大理市下关人民南路122号,671000,电话：0872-2125465;传真号码：0872-2125109,nan,nan,2018-12-04T19:03:18Z
710,玉溪市人民医院,,云南省,玉溪市,玉溪市红塔区聂耳路二十一号,653100,电话:0877-2014431(门诊服务台),nan,nan,2018-12-04T19:03:18Z
711,楚雄彝族自治州人民医院,,云南省,楚雄彝族自治州,中国云南省楚雄市鹿城南路318号,675000,电话：0878-3122105,nan,nan,2018-12-04T19:03:19Z
712,云南省农垦总局第一职工医院,,云南省,西双版纳傣族自治州,云南省景洪市澜沧江路43号,666101,电话：0691-2220120,nan,nan,2018-12-04T19:03:19Z
713,西双版纳傣族自治州人民医院,,云南省,西双版纳傣族自治州,云南省景洪市嘎兰南路17号,nan,电话：0691-2123849,nan,nan,2018-12-04T19:03:19Z
714,红河州第一人民医院,,云南省,红河哈尼族彝族自治州,云南省蒙自市南湖南路11号,661100,电话：0873-3642907,nan,nan,2018-12-04T19:03:19Z
715,红河州第三人民医院,,云南省,红河哈尼族彝族自治州,云南省个旧市金湖东路229号,661000,电话：0873-2129098 传真：0873-2125880,nan,nan,2018-12-04T19:03:19Z
716,个旧市人民医院,,云南省,红河哈尼族彝族自治州,云南省个旧市金湖南路17号,nan,电话：0873-2128170 传真:0873-2128170,nan,nan,2018-12-04T19:03:19Z
717,保山市人民医院,,云南省,保山市,保山市隆阳区永昌镇保岫西路94号,678000,电话:0875-2120681(医务科)传　真：0875-2149036,nan,nan,2018-12-04T19:03:19Z
718,保山市第二人民医院,,云南省,保山市,保山市隆阳区永昌镇正阳南路13号,678000,电话：0875-2121043,nan,nan,2018-12-04T19:03:19Z
719,昭通第一人民医院,,云南省,保山市,云南省昭通市昭阳区医卫路35号,657000,"电话：0870-2153393,2152837",nan,nan,2018-12-04T19:03:20Z
720,内蒙古医学院附属医院,内蒙古医学院第一附属医院,内蒙古自治区,呼和浩特市,呼和浩特市通道北路1号,nan,电话:0471-6636643,nan,nan,2018-12-04T19:03:20Z
721,内蒙古包钢医院,包钢职工医院,内蒙古自治区,包头市,内蒙古包头市昆区少先路20号,14010,电话:0472-5992834,nan,nan,2018-12-04T19:03:20Z
722,包头市中心医院,,内蒙古自治区,包头市,内蒙古自治区包头市东河区环城路61号,nan,电话: 0472-6955299 投诉电话：0472-6955252/6955251,nan,nan,2018-12-04T19:03:20Z
723,包头医学院第一附属医院,,内蒙古自治区,包头市,内蒙古包头市昆区林萌路41号,nan,电话:0472-2125141,nan,nan,2018-12-04T19:03:20Z
724,包头朝聚眼科医院,,内蒙古自治区,包头市,内蒙古包头市九原区文明路四号,nan,电话:0472-7165120/7157120,nan,nan,2018-12-04T19:03:21Z
725,赤峰市医院,内蒙赤峰市平在矿务局古山医院,内蒙古自治区,赤峰市,赤峰市昭乌达路中段1号,24000,电话:0476-8331476(咨询)传真：0476-8331476,nan,nan,2018-12-04T19:03:21Z
726,赤峰学院附属医院,,内蒙古自治区,赤峰市,赤峰市红山区园林路东三段4号,nan,电话：0476-5986666 院办/传真：0476-5973011,nan,nan,2018-12-04T19:03:21Z
727,赤峰朝聚眼科医院,,内蒙古自治区,赤峰市,内蒙古赤峰市红山区哈达街西街96号,nan,电话：0476-5888500 传真：0476-5888870,nan,nan,2018-12-04T19:03:21Z
728,赤峰市第二医院,,内蒙古自治区,赤峰市,赤峰市长青街中段路北1号,24000,电话：0476-8227717,nan,nan,2018-12-04T19:03:21Z
729,鄂尔多斯市中心医院,,内蒙古自治区,鄂尔多斯市,鄂尔多斯市伊金霍洛西街23号,nan,电话:0477-8363158(院办),nan,nan,2018-12-04T19:03:21Z
730,通辽市医院,,内蒙古自治区,通辽市,通辽市科尔沁区科尔沁大街668号,28000,电话:0475-8253355,nan,nan,2018-12-04T19:03:21Z
731,乌兰察布市中心医院,,内蒙古自治区,乌兰察布市,内蒙古乌兰察布市集宁区解放路157号,nan,电话:0474--8224459　　传真:0474--8158380,nan,nan,2018-12-04T19:03:22Z
732,兴安盟人民医院,,内蒙古自治区,兴安盟市,内蒙古乌兰浩特市罕山东街12号,137400,电话：0482-8413808 传真：0482-8413042,nan,nan,2018-12-04T19:03:22Z
733,巴盟残联眼科医院,,内蒙古自治区,巴彦淖尔市,内蒙临河市胜利北路,nan,电话:0478-8211372,nan,nan,2018-12-04T19:03:22Z
734,贵州省人民医院,,贵州省,贵阳市,中国贵州省贵阳市中山东路83号,550002,电话：0851-5922979 传真：0851- 5924943,nan,nan,2018-12-04T19:03:22Z
735,贵阳医学院第一附属医院,贵阳医学院附属医院,贵州省,贵阳市,贵阳市贵医街28号,nan,电话：0851-6855119,nan,nan,2018-12-04T19:03:22Z
736,贵阳市第一人民医院,,贵州省,贵阳市,中国.贵州省.贵阳市.南明区博爱路97号,550002,"电话(传真):0851-5813741,门诊预约挂号电话：0851-5833364",nan,nan,2018-12-04T19:03:22Z
737,遵义医学院附属医院,,贵州省,遵义市,贵州省遵义市大连路149号,nan,电话： 0852-8623430 | 院办：0852-8608316 | 党办： 0852-8608299 | 医务处：0852-8608228,nan,nan,2018-12-04T19:03:22Z
738,都匀市人民医院,,贵州省,黔南布依族苗族自治州,贵州省黔南布依族苗族自治州都匀市胜利路75号,558000,电话：0854-8255385，8255316,nan,nan,2018-12-04T19:03:23Z
739,黔南州中医院,,贵州省,黔南布依族苗族自治州,都匀市剑江中路32号,nan,电话：0854—8250111,nan,nan,2018-12-04T19:03:23Z
740,新疆医科大学第一附属医院,新疆医学院第一附属医院,新疆维吾尔自治区,乌鲁木齐市,新疆维吾尔自治区乌鲁木齐市鲤鱼山南路137号,830054,电话：0991-4362974 住院部联络处电话：0991-4364780,nan,nan,2018-12-04T19:03:23Z
741,新疆维吾尔自治区人民医院,,新疆维吾尔自治区,乌鲁木齐市,地址:中国.新疆乌鲁木齐市天山区天池路91号,830001,电话:0991-8562209[值班] 8561442[网站]  传真:0991-8564761,nan,nan,2018-12-04T19:03:23Z
742,乌鲁木齐普瑞眼科医院,,新疆维吾尔自治区,乌鲁木齐市,乌鲁木齐市天山区青年路333号,nan,电话:0991-8851022 ,nan,QQ:1374022373/1057318335,2018-12-04T19:03:23Z
743,新疆石河子大学医学院附属医院,,新疆维吾尔自治区,石河子市,新疆石河子市北二路,nan,"电话:0993-2850000(咨询),0993-2858573(院办公室),0993-2858120(急救)",nan,nan,2018-12-04T19:03:23Z
744,兰州大学第一医院,,甘肃省,兰州市,兰州市城关区东岗西路1号,nan,电话:0931-8625200 (总机) 传真：0931-8619797,nan,nan,2018-12-04T19:03:24Z
745,兰州大学第二医院,,甘肃省,兰州市,甘肃省兰州市城关区萃英门82号,730030,电话：8942262 医院门诊办公室电话：8942366 医院挂号室电话：8942784,nan,nan,2018-12-04T19:03:24Z
746,甘肃省人民医院,,甘肃省,兰州市,兰州市东岗西路204号,730000,电话:（0931-8281763）,nan,nan,2018-12-04T19:03:24Z
747,兰州石化总医院,,甘肃省,兰州市,兰州市西固区福利西路733号,nan,电话：0931-7554995,nan,nan,2018-12-04T19:03:24Z
748,白银市第一人民医院,,甘肃省,白银市,白银市白银区四龙路222号,nan,电话：0943-8811601(医务部) 0943-8812061(办公室) 0943-8813033(党群部),nan,nan,2018-12-04T19:03:24Z
749,酒钢医院,,甘肃省,嘉峪关市,甘肃省嘉峪关市雄关西路18号,735100,电话：0937-6717558,nan,nan,2018-12-04T19:03:24Z
750,酒泉市人民医院,,甘肃省,酒泉市,酒泉市西大街22号,nan,电话:+86 937 261 3034,nan,nan,2018-12-04T19:03:24Z
751,海南省农垦总局医院,,海南省,海口市,海口市白水塘路48号,nan,电话:+86 898 6539 2299,nan,nan,2018-12-04T19:03:25Z
752,海南省人民医院,,海南省,海口市,海南省海口市秀英区秀华路19号,570311,电话：68642548 投诉电话：68642645,nan,nan,2018-12-04T19:03:25Z
753,海口市人民医院,,海南省,海口市,中国·海南·海口市海甸岛人民大道43号,nan,"电话:0898-66189555(院办),0898-66151001(咨询),0898-66151002(咨询)",nan,nan,2018-12-04T19:03:25Z
754,海南医学院附属医院,,海南省,海口市,海南省海口市龙华路31号，,570102,电话：0898-66772248,nan,nan,2018-12-04T19:03:25Z
755,海南省眼科医院,,海南省,海口市,海南省海口市秀英区秀华路19号,nan,电话：0898-68628502,nan,nan,2018-12-04T19:03:25Z
756,海南省农垦三亚医院,,海南省,三亚市,海南省三亚市解放四路 146号,nan,电话：0898-8829888 88298958传真：0898-88298965,nan,nan,2018-12-04T19:03:25Z
757,青海大学附属医院,青海医学院附属医院,青海省,西宁市,青海省西宁市城西区同仁路29号,nan,电话:0971-6162000(总机),nan,nan,2018-12-04T19:03:26Z
758,青海省人民医院,,青海省,西宁市,青海省西宁市城东区共和路2号,nan,电话：0971-8177911,nan,nan,2018-12-04T19:03:26Z
759,青海省心血管专科医院,,青海省,西宁市,青海省西宁市砖厂路7号,nan,电话:+86 971 625 5999,nan,nan,2018-12-04T19:03:26Z
760,西宁市第一人民医院,,青海省,西宁市,青海省西宁市城中区互助巷3号,810000,电话： 0971-7914019,nan,nan,2018-12-04T19:03:26Z
761,宁夏回族自治区人民医院,,宁夏回族自治区,银川市,宁夏银川怀远西路148号,750021,电话：0951-2063120(急诊)　传　真：0951-2063081,nan,nan,2018-12-04T19:03:26Z
762,宁夏医科大学总医院,,宁夏回族自治区,银川市,宁厦银川市兴庆区胜利南街804号,nan,"电话:0951-4091488(总机),0951-6744200(查号台)",nan,nan,2018-12-04T19:03:26Z
763,西藏自治区人民医院,,西藏自治区,拉萨市,西藏自治区拉萨市林廓北路18号,850000,电话：0891-6371903,nan,nan,2018-12-04T19:03:26Z
764,西藏藏医学院附属医院,,西藏自治区,拉萨市,西藏拉萨市当热中路10号,850000,电话:,nan,nan,2018-12-04T19:03:26Z
765,拉萨市人民医院,,西藏自治区,拉萨市,拉萨市北京中路1号,nan,电话:+86 891 632 3302,nan,nan,2018-12-04T19:03:27Z
766,解放军总医院,中国人民解放军总医院; 北京解放军总医院,北京市,北京市,北京市海淀区复兴路28号,100853,电话：+86 10 6688 7329,nan,nan,2018-12-04T19:03:27Z
767,解放军总医院第一附属医院,304医院,北京市,北京市,北京市海淀区阜成路51号,100048,电话： 010-66867304,nan,nan,2018-12-04T19:03:27Z
768,解放军第309医院,中国人民解放军第309医院,北京市,北京市,北京市海淀区黑山扈路甲17号,100091,电话：010-66775961,nan,nan,2018-12-04T19:03:27Z
769,解放军海军总医院,海军总医院,北京市,北京市,北京市海淀区阜成路6号,100048,电话：010-66958114,nan,nan,2018-12-04T19:03:28Z
770,解放军空军总医院,中国人民解放军空军总医院; 空军总医院,北京市,北京市,北京市海淀区阜成路30号,100142,电话：010-68610099,nan,nan,2018-12-04T19:03:28Z
771,解放军第二炮兵总医院,,北京市,北京市,北京市西城区新街口外大街16号,100088,电话：010-66343114,nan,nan,2018-12-04T19:03:28Z
772,北京军区总医院,军区总医院,北京市,北京市,北京市东城区东四十条南门仓5号,100700,电话：010-66721629,nan,nan,2018-12-04T19:03:28Z
773,解放军第302医院,,北京市,北京市,北京市丰台区西四环中路100号,100039,电话：010-66933129,nan,nan,2018-12-04T19:03:29Z
774,解放军第307医院,,北京市,北京市,北京市丰台区东大街8号,100071,电话：010-66947114,nan,nan,2018-12-04T19:03:29Z
775,武警总医院,,北京市,北京市,北京市海淀区永定路69号,100039,电话：010-57976114,nan,nan,2018-12-04T19:03:29Z
776,武警北京总队第二医院,,北京市,北京市,北京市西城区月坛北街丁3号,100045,电话：010-62558999;传真号码：010-68045599,nan,nan,2018-12-04T19:03:29Z
777,空军航空医学研究所附属医院,,北京市,北京市,北京海淀区北洼路北口,100089,电话：010-81988888,nan,nan,2018-12-04T19:03:29Z
778,北京军区总医院附属八一儿童医院,,北京市,北京市,北京市东城区朝内北小街2号,100700,电话：（010）66721117,nan,nan,2018-12-04T19:03:29Z
779,北京市监狱管理局中心医院,,北京市,北京市,北京市宣武区右安门东街9号,100054,电话：010-83580222,nan,nan,2018-12-04T19:03:29Z
780,南方医科大学南方医院,原第一军医大学第一附属医院; 南方医院,广东省,广州市,广东省广州市广州大道北1838号,510515,电话：020-61641888,nan,nan,2018-12-04T19:03:30Z
781,南方医科大学珠江医院,原第一军医大学第二附属医院; 第一军医大学珠江医院; 珠江医院,广东省,广州市,广东省广州市工业大道中253号,510280,电话：020-61643888,nan,nan,2018-12-04T19:03:30Z
782,广州军区广州总医院,广州总医院,广东省,广州市,广东省广州市流花路111号,510010,电话：020-36653111,nan,nan,2018-12-04T19:03:30Z
783,中国人民解放军第458医院,,广东省,广州市,广东省广州市东风东路801号,510602,电话：400-8300-458,nan,nan,2018-12-04T19:03:31Z
784,武警广东总队医院,,广东省,广州市,广东省广州市天河区燕岭路268号,510507,电话：020-61627499,nan,nan,2018-12-04T19:03:31Z
785,广东公安边防总队医院,,广东省,深圳市,广东省深圳市罗湖区清水河红岗路8号,518029,电话：0755-82699999;传真号码：0755-82699865,nan,nan,2018-12-04T19:03:31Z
786,解放军第二军医大学附属长征医院,长征医院; 解放军泌尿外科中心第二军医大学长征医院; 第二军医大学附属长征医院; 中国人民解放军第二军医大学附属长征医院; 中国人民解放军第二军医大学长征医院,上海市,上海市,上海市黄浦区凤阳路415号,200003,电话：021-81886999;传真号码：021-63520020,nan,nan,2018-12-04T19:03:31Z
787,第二军医大学附属长海医院,上海长海医院,上海市,上海市,上海杨浦区长海路168号,200433,电话：021-81871114,nan,nan,2018-12-04T19:03:32Z
788,解放军第二军医大学附属东方肝胆外科医院,,上海市,上海市,上海市长海路225号,200438,电话：021-65564166传真号码：021-65562400,nan,nan,2018-12-04T19:03:32Z
789,解放军第85医院,,上海市,上海市,上海市华山路1328号,200052,电话：021-62528805;传真号码：021-62525736,nan,nan,2018-12-04T19:03:32Z
790,解放军第455医院,,上海市,上海市,上海长宁区淮海西路338号,200052,电话：021-81815455;传真号码：021-62802350,nan,nan,2018-12-04T19:03:32Z
791,解放军第455医院松江分院,,上海市,上海市,上海市松江区松汇西路1200号,200052,电话：021-62333253,nan,nan,2018-12-04T19:03:32Z
792,武警上海总队医院,,上海市,上海市,上海市虹许路831号,201103,电话：400-665-6612,nan,nan,2018-12-04T19:03:32Z
793,第三军医大学附属大坪医院,重庆第三军医大学附属大坪医院; 第三军医大学大坪医院,重庆市,重庆市,重庆市渝中区大坪长江之路10号,400042,电话：023-68811229,nan,nan,2018-12-04T19:03:33Z
794,第三军医大学附属西南医院,西南医院,重庆市,重庆市,重庆市沙坪坝区高滩岩正街30号,400038,电话：023-65318301传真号码：023-65317511/68754007,nan,nan,2018-12-04T19:03:33Z
795,第三军医大学附属新桥医院,新桥医院; 第三军医大学第二附属医院; 第三军医大学新桥医院,重庆市,重庆市,重庆市沙坪坝区新桥正街1号,400037,电话：023-68755114,nan,nan,2018-12-04T19:03:33Z
796,解放军第324医院,,重庆市,重庆市,重庆市江北区建新东路29号,400000,电话：023-68762011传真号码：023－67752554,nan,nan,2018-12-04T19:03:33Z
797,第四军医大学附属西京医院,,陕西省,西安市,陕西省西安市长乐西路15号,710032,电话：029-84775507,nan,nan,2018-12-04T19:03:34Z
798,第四军医大学附属唐都医院,,陕西省,西安市,陕西省西安市灞桥区新寺路,710038,电话：029-84777777,nan,nan,2018-12-04T19:03:34Z
799,武警陕西总队医院,,陕西省,西安市,陕西省西安市南二环东段88号,710054,电话：029-83705106,nan,nan,2018-12-04T19:03:34Z
800,解放军第451医院,西安市解放军451医院,陕西省,西安市,陕西省西安市友谊东路269号,710062,电话：029-68852666,nan,nan,2018-12-04T19:03:34Z
801,解放军第3医院,,陕西省,宝鸡市,陕西省宝鸡市东风路45号,721004,电话：0917--3424397,nan,nan,2018-12-04T19:03:34Z
802,南京军区南京总医院,南京总医院; 解放军南京军区南京总医院,江苏省,南京市,江苏省南京市中山东路305号,210002,电话：025-80860114传真号码：025-84824051,nan,nan,2018-12-04T19:03:35Z
803,解放军第81医院,第81医院,江苏省,南京市,江苏省南京杨公井34标34号,210002,电话：025-86648090,nan,nan,2018-12-04T19:03:35Z
804,解放军第101医院,,江苏省,无锡市,无锡市兴源北路101号,214044,电话：0510-85142114,nan,nan,2018-12-04T19:03:35Z
805,解放军第97医院,,江苏省,徐州市,江苏徐州市铜山路226号,221000,电话：0516-83349120,nan,nan,2018-12-04T19:03:35Z
806,南京军区福州总医院,南风军区福州总医院; 南京军区总医院; 解放军南京军区福州总医院; 中国人民解放军南京军区福州总医院; 福州市南京军区福州总医院; 福州总医院,福建省,福州市,福建省福州市鼓楼区梅峰路2号,354200,电话：0591-83727698,nan,nan,2018-12-04T19:03:36Z
807,解放军第476医院,,福建省,福州市,福州市马尾区罗星西路,350002,电话：0591-83745550,nan,nan,2018-12-04T19:03:36Z
808,武警福建总队医院,,福建省,福州市,福建省福州市鼓楼区北环西路159号,350003,电话：0591-83128666,nan,nan,2018-12-04T19:03:36Z
809,中国人民解放军第180医院,,福建省,泉州市,福建省泉州市丰泽区北门外清源山下,362000,电话：0595-28180180,nan,nan,2018-12-04T19:03:36Z
810,解放军第174医院,,福建省,厦门市,福建省厦门市文园路94-96号,361003,电话：0592-2025971,nan,nan,2018-12-04T19:03:36Z
811,解放军第175医院,175医院,福建省,漳州市,福建漳州华中路269号,363000,电话：0596-2947175,nan,nan,2018-12-04T19:03:37Z
812,广州军区武汉总医院,武汉总医院,湖北省,武汉市,湖北省武汉市武珞路627号,430070,电话：027-68878888,nan,nan,2018-12-04T19:03:37Z
813,解放军第161医院,,湖北省,武汉市,湖北省武汉市汉口黄浦路68号,430010,电话：027-50169114,nan,nan,2018-12-04T19:03:37Z
814,武警湖北总队医院,,湖北省,武汉市,湖北省武汉市武昌区民主路475号,430061,电话：027-50723099,nan,nan,2018-12-04T19:03:37Z
815,解放军第457医院,,湖北省,武汉市,湖北省武汉市江岸区工农兵路15号,430012,电话：027-85858999,nan,nan,2018-12-04T19:03:37Z
816,解放军第477医院,,湖北省,襄阳市,湖北省襄樊市运动路,430070,电话：0710-3257018,nan,nan,2018-12-04T19:03:37Z
817,济南军区总医院,济南市济南军区总医院; 中国人民解放军济南军区总医院; 解放军济南军区总医院,山东省,济南市,山东省济南市天桥区师范路25号,250031,电话：0531-51666114,nan,nan,2018-12-04T19:03:38Z
818,武警山东省边防总队医院,,山东省,济南市,山东省济南市历下区解放东路59-3号,250000,电话：0531-82312577,nan,nan,2018-12-04T19:03:38Z
819,解放军第401医院,,山东省,青岛市,山东青岛闽江路22号,266071,电话：0532-51870114,nan,nan,2018-12-04T19:03:38Z
820,解放军第107医院,,山东省,烟台市,山东烟台市芝罘区只楚南路7号,264002,电话：0535-2933339,nan,nan,2018-12-04T19:03:38Z
821,解放军第89医院,,山东省,潍坊市,山东潍坊市北宫西街256号,261000,电话：0536-8439114,nan,nan,2018-12-04T19:03:38Z
822,兖州91医院,,山东省,济宁市,山东省济宁市兖州市健康路1号,272000,电话：0537-3412259,nan,nan,2018-12-04T19:03:38Z
823,解放军第88医院,88医院,山东省,泰安市,山东省泰安市虎山东路6号,271000,电话：0538-6213002,nan,nan,2018-12-04T19:03:38Z
824,沈阳军区总医院,中国人民解放军沈阳军区总医院; 齐齐哈尔市解放军沈阳军区总医院; 解放军沈阳部队总医院,辽宁省,沈阳市,辽宁省沈阳市沈河区文化路83号,110015,电话：024-28886666,nan,nan,2018-12-04T19:03:39Z
825,解放军第463医院,,辽宁省,沈阳市,辽宁省沈阳市大东区小河沿路46号,110042,电话：024-28845000,nan,nan,2018-12-04T19:03:39Z
826,解放军第202医院,,辽宁省,沈阳市,辽宁省沈阳市和平区光荣街5号,110003,电话：024-23866428,nan,nan,2018-12-04T19:03:39Z
827,解放军第201医院,,辽宁省,辽阳市,辽阳白塔区卫国路148号,111000,电话：0419-3859777,nan,nan,2018-12-04T19:03:39Z
828,解放军第205医院,,辽宁省,锦州市,锦州市古塔区重庆路二段九号,121001,电话：400-6999120,nan,nan,2018-12-04T19:03:40Z
829,成都军区总医院,解放军成都军区总医院; 中国人民解放军成都军区总医院,四川省,成都市,四川省成都市蓉都大道天回路270号,610083,电话：028-86570211,nan,nan,2018-12-04T19:03:40Z
830,解放军第452医院,解放军第四五二医院; 空军成都医院,四川省,成都市,成都市锦江区九眼桥顺江路317号,610000,电话：+86 28 8116 0831,nan,nan,2018-12-04T19:03:40Z
831,武警四川总队医院,,四川省,成都市,四川省成都市浆洗街5号,610041,电话：028-85599703,nan,nan,2018-12-04T19:03:40Z
832,兰州军区兰州总医院,军区兰州总医院,甘肃省,兰州市,甘肃省兰州市七里河区小西湖西街98号,730050,电话：0931-8975003,nan,nan,2018-12-04T19:03:41Z
833,兰州军区乌鲁木齐总医院,,新疆维吾尔自治区,乌鲁木齐市,新疆维吾尔自治区乌鲁木齐友好北路41号,830000,电话：0991-4992101,nan,nan,2018-12-04T19:03:41Z
834,兰州军区第474医院,,新疆维吾尔自治区,乌鲁木齐市,乌鲁木齐市北京中路754号,830013,电话：,nan,nan,2018-12-04T19:03:41Z
835,成都军区昆明总医院,解放军成都军区昆明总医院; 昆明总医院,云南省,昆明市,云南省昆明市大观路212号,650032,电话：0871-4774999,nan,nan,2018-12-04T19:03:41Z
836,解放军第59中心医院,云南省开远市解放军第五十九中心医院,云南省,红河哈尼族彝族自治州,云南省开远市健民路147号,661600,电话：0873-7193000,nan,nan,2018-12-04T19:03:42Z
837,西藏军区总医院,,西藏自治区,拉萨市,西藏自治区拉萨市阳扎路,850000,电话：0891-6253315,nan,nan,2018-12-04T19:03:42Z
838,解放军第281医院,281医院; 解放军281医院,河北省,石家庄市,中国河北秦皇岛北戴河区西海滩路4号,[066100],电话：0335-5360000,nan,nan,2018-12-04T19:03:42Z
839,解放军白求恩国际和平医院,白求恩国际和平医院,河北省,石家庄市,河北省石家庄市中山西路398号,[050082],电话：0311-87998114;传真号码：0311－86988245,nan,nan,2018-12-04T19:03:42Z
840,武警河北总队医院,,河北省,石家庄市,河北省石家庄市新华西路130号,[050050],电话：0311-83626303,nan,nan,2018-12-04T19:03:42Z
841,解放军第251医院,,河北省,张家口市,河北省张家口市建国路13号,【075000】,电话：0313-8785012,nan,nan,2018-12-04T19:03:42Z
842,武警医学院附属医院,,天津市,天津市,天津市河东区成林道211号,300162,电话：022-60578777,nan,nan,2018-12-04T19:03:43Z
843,天津公安医院,,天津市,天津市,天津市南京路78号,300042,电话：022-23142772,nan,nan,2018-12-04T19:03:43Z
844,解放军第254医院,,天津市,天津市,天津市河北区黄纬路60号,300143,电话：022-26220266,nan,nan,2018-12-04T19:03:43Z
845,解放军空军天津医院,空军天津医院; 天津464医院,天津市,天津市,天津市南开区红旗南路600号,300090,电话：022-26223355,nan,nan,2018-12-04T19:03:43Z
846,解放军第264医院,264医院,山西省,太原市,山西太原市桥东街中段30号,【030001】,电话：0351-2231306传真号码：0351-4988305,nan,nan,2018-12-04T19:03:43Z
847,武警山西总队医院,,山西省,太原市,山西省太原市坞城路师范街78号,【030006】,电话：0351-7073833,nan,nan,2018-12-04T19:03:44Z
848,解放军第322医院,中国人民解放军第322医院; 322医院,山西省,大同市,大同市云中路2号,【037004】,电话：+86 352 578 3113,nan,nan,2018-12-04T19:03:44Z
849,中国人民解放军第117医院,,浙江省,杭州市,浙江省杭州市西湖区灵隐路14号,310013,电话：0571-87348500,nan,nan,2018-12-04T19:03:44Z
850,解放军第105医院,,安徽省,合肥市,合肥市长江西路424号,230000,电话：400-9922-105,nan,nan,2018-12-04T19:03:44Z
851,武警安徽总队医院,,安徽省,合肥市,安徽省合肥市长丰路78号,230061,电话：0551-5603011,nan,nan,2018-12-04T19:03:44Z
852,解放军第94医院,,江西省,南昌市,江西省南昌市井冈山大道1028号,330000,电话：0791-6494940,nan,nan,2018-12-04T19:03:44Z
853,武警江西总队医院,,江西省,南昌市,江西省南昌市青云谱区迎宾大道602号,330001,电话：0791-5231988,nan,nan,2018-12-04T19:03:45Z
854,解放军第181医院,北戴河北京军区第281医院; 181医院,广西壮族自治区,桂林市,广西壮族自治区桂林市新桥园路1号,541002,电话：0773-3843453传真号码：0773-2081423,nan,nan,2018-12-04T19:03:45Z
855,解放军第303医院,,广西壮族自治区,南宁市,广西壮族自治区南宁市植物路52号,530021,电话：0771-2870120传真号码：0771-2870304,nan,nan,2018-12-04T19:03:45Z
856,解放军第187医院,,海南省,海口市,海南省海口市龙昆南路100号,571159,电话：0898-65884569,nan,nan,2018-12-04T19:03:45Z
857,解放军第153中心医院,,河南省,郑州市,郑州市中原区友爱路42号,450042,电话：+86 371 6385 8055,nan,nan,2018-12-04T19:03:45Z
858,武警河南省总队医院,,河南省,郑州市,河南省郑州市康复中街1号,450000,电话：400-6986677,nan,nan,2018-12-04T19:03:45Z
859,解放军第150中心医院,,河南省,洛阳市,河南省洛阳市涧西区华夏西路2号,471031,电话：+86 379 6438 1150,nan,nan,2018-12-04T19:03:46Z
860,解放军第371医院,,河南省,新乡市,河南省新乡市文化街 210号,453000,电话：+86 373 508 1371,nan,nan,2018-12-04T19:03:46Z
861,解放军第159中心医院,,河南省,驻马店市,河南省驻马店市一五九大道1号,463000,电话：400-8313-911,nan,nan,2018-12-04T19:03:46Z
862,哈尔滨242医院,,黑龙江省,哈尔滨市,黑龙江省哈尔滨市平房区集智街39号,150066,电话：0451-6521046,nan,nan,2018-12-04T19:03:46Z
863,吉林医药学院附属医院,原吉林军医学院附属医院,吉林省,吉林市,吉林省吉林市丰满区华山路81号,132011,电话：0432－4560705,nan,nan,2018-12-04T19:03:46Z
864,解放军第44医院,解放军44医院,贵州省,贵阳市,贵州省贵阳市小河区黄河路67号,550005,电话：+86 851 383 4308,nan,nan,2018-12-04T19:03:46Z
865,武警宁夏总队医院,,宁夏回族自治区,银川市,宁夏银川市清和南街895号,750004,电话：0951-4078114,nan,nan,2018-12-04T19:03:47Z
866,中国石油天然气总公司中心医院,中国石油天燃气总公司中心医院,,,,,,,,2018-12-04T19:03:47Z
867,解放军266医院,,,,,,,,,2018-12-04T19:03:47Z
868,青岛市市立医院,,,,,,,,,2018-12-04T19:03:47Z
869,武汉医学院器官移植研究所第二附属医院,武汉医学院第二附属医院,,,,,,,,2018-12-04T19:03:47Z
870,贵州省都匀市414医院,贵州省都匀414医院; 电子工业部都匀414医院; 都匀 558004黔南民族医专教学医院,,,,,,,,2018-12-04T19:03:48Z
871,浙江省萧山市中医院,,,,,,,,,2018-12-04T19:03:48Z
872,冶金部第一冶金建设公司东湖医院,,,,,,,,,2018-12-04T19:03:48Z
873,上海市中山医院,上海医科大学中山医院,,,,,,,,2018-12-04T19:03:48Z
874,上海第二医学院附属新华医院,,,,,,,,,2018-12-04T19:03:48Z
875,第一军医大学附属第一医院,第一军医大学附属南方医院,,,,,,,,2018-12-04T19:03:49Z
876,广州同和南方医院,广州南方医院; 广州第一军医大学南方医院,,,,,,,,2018-12-04T19:03:49Z
877,第一军医大学第一附属医院,,,,,,,,,2018-12-04T19:03:49Z
878,郑州铁路局西安中心医院,,,,,,,,,2018-12-04T19:03:49Z
879,西安医学院第一附属医院,,,,,,,,,2018-12-04T19:03:49Z
880,沙市市第一医院,湖北省沙市市第一人民医院,,,,,,,,2018-12-04T19:03:49Z
885,湖南中医学院附属第一医院,湖南省衡阳医学院附属第一医院,,,,,,,,2018-12-04T19:03:50Z
886,军事医学科学院附属医院,,,,,,,,,2018-12-04T19:03:50Z
888,浙江省绍兴市第二人民医院,,,,,,,,,2018-12-04T19:03:50Z
890,长春市中心医院,长春市医院,,,,,,,,2018-12-04T19:03:50Z
892,上海建工医院,,,,,,,,,2018-12-04T19:03:50Z
894,哈尔滨市公安消防医院,,,,,,,,,2018-12-04T19:03:50Z
895,华北煤炭医学院附属医院,,,,,,,,,2018-12-04T19:03:51Z
896,浙江嘉兴人民医院,浙江嘉兴市第一人民医院,,,,,,,,2018-12-04T19:03:51Z
897,第一汽车制造厂职工医院,,,,,,,,,2018-12-04T19:03:51Z
898,西安医种大学第一附属医院,西安医科大学第一附属医院,,,,,,,,2018-12-04T19:03:51Z
899,上海中医学院附属曙光医院,,,,,,,,,2018-12-04T19:03:51Z
900,上海市静安区中心医院,,,,,,,,,2018-12-04T19:03:51Z
901,大庆市第一医院,,,,,,,,,2018-12-04T19:03:51Z
902,浙江省第二中医院,,,,,,,,,2018-12-04T19:03:52Z
903,空军长春医院,,,,,,,,,2018-12-04T19:03:52Z
904,江苏省扬州地区医院,,,,,,,,,2018-12-04T19:03:52Z
905,中山医学院第一附属医院,中山医科大学第一附属医院,,,,,,,,2018-12-04T19:03:52Z
906,山东省平邑县人民医院,,,,,,,,,2018-12-04T19:03:52Z
907,安徽淮南第二矿工医院,,,,,,,,,2018-12-04T19:03:52Z
909,吴县人民医院,,,,,,,,,2018-12-04T19:03:52Z
910,开封医专附属淮河医院,,,,,,,,,2018-12-04T19:03:53Z
911,北京医科大学第三医院,,,,,,,,,2018-12-04T19:03:53Z
912,成都市第二人民医院,,,,,,,,,2018-12-04T19:03:53Z
914,武警福建省总队医院,福建省武装警察总队医院,,,,,,,,2018-12-04T19:03:53Z
915,凌河区中医医院,,,,,,,,,2018-12-04T19:03:53Z
916,锦州医学院附属医院,,,,,,,,,2018-12-04T19:03:53Z
917,山西医科大学第二医院,,,,,,,,,2018-12-04T19:03:53Z
918,上海第一医学院附属中山医院,上海第一医学院中山医院,,,,,,,,2018-12-04T19:03:54Z
919,香港大学医学院玛丽医院,香港玛丽医院,,,,,,,,2018-12-04T19:03:54Z
922,贵州省铜仁地区医院,,,,,,,,,2018-12-04T19:03:54Z
923,福建省浦城县中医院,,,,,,,,,2018-12-04T19:03:54Z
924,河北省开滦矿务局医院,,,,,,,,,2018-12-04T19:03:54Z
925,上海市嘉定县安亭医院,,,,,,,,,2018-12-04T19:03:54Z
926,北京积水潭医院,,,,,,,,,2018-12-04T19:03:54Z
927,广东省兴宁市人民医院,,,,,,,,,2018-12-04T19:03:55Z
928,湖北省十堰市东风汽车公司中心医院,湖北十堰市第二汽车制造厂中心医院,,,,,,,,2018-12-04T19:03:55Z
931,淄博铁路医院,,,,,,,,,2018-12-04T19:03:55Z
932,湖北省荆州地区医院,,,,,,,,,2018-12-04T19:03:55Z
933,解放军第二六四医院,,,,,,,,,2018-12-04T19:03:55Z
934,鞍山市第二医院,,,,,,,,,2018-12-04T19:03:55Z
936,齐齐哈尔铁路中心医院,,,,,,,,,2018-12-04T19:03:55Z
937,大庆市第四医院,,,,,,,,,2018-12-04T19:03:55Z
938,南京医学院附属医院,,,,,,,,,2018-12-04T19:03:56Z
940,杭州市解放军475医院,,,,,,,,,2018-12-04T19:03:56Z
943,浙江省中医研究院附属医院,浙江省中医药研究院附属医院,,,,,,,,2018-12-04T19:03:56Z
944,广州医学院第二附瞩医院,,,,,,,,,2018-12-04T19:03:56Z
945,中山医科大学附届第一医院,,,,,,,,,2018-12-04T19:03:56Z
948,内蒙古自治区医院,,,,,,,,,2018-12-04T19:03:56Z
949,洛阳医学高等专科学校附属医院,洛阳医学专科学校附属医院,,,,,,,,2018-12-04T19:03:57Z
950,白求恩医科大学直属医院,,,,,,,,,2018-12-04T19:03:57Z
951,第211医院,解放军第211医院,,,,,,,,2018-12-04T19:03:57Z
952,吉林省桦甸市白山发电厂职工医院,,,,,,,,,2018-12-04T19:03:57Z
953,巩义市第二人民医院,,,,,,,,,2018-12-04T19:03:57Z
954,解放军第三医院,,,,,,,,,2018-12-04T19:03:57Z
955,河南省郑州市第三人民医院,郑州市第三人民医院,,,,,,,,2018-12-04T19:03:57Z
956,广东省澄海市人民医院,,,,,,,,,2018-12-04T19:03:58Z
957,进修医师山西省芮城县人民医院,,,,,,,,,2018-12-04T19:03:58Z
960,广东省东莞市太平人民医院,,,,,,,,,2018-12-04T19:03:58Z
961,上海红光医院,,,,,,,,,2018-12-04T19:03:58Z
962,中山市博爱医院,,,,,,,,,2018-12-04T19:03:58Z
964,河北省霸州市医院,,,,,,,,,2018-12-04T19:03:58Z
965,成都军区47医院,,,,,,,,,2018-12-04T19:03:58Z
966,上海第二医学院附属第三人民医院,,,,,,,,,2018-12-04T19:03:58Z
967,水城矿务局中心医院,,,,,,,,,2018-12-04T19:03:59Z
970,黑龙江省佳木斯市中心医院,,,,,,,,,2018-12-04T19:03:59Z
971,四川成都铁路中心医院,,,,,,,,,2018-12-04T19:03:59Z
972,山西大同铁路医院,,,,,,,,,2018-12-04T19:03:59Z
973,空军杭州医院,,,,,,,,,2018-12-04T19:03:59Z
974,第三军医大学附属第二医院,重庆第三军医大学第二附属医院,,,,,,,,2018-12-04T19:03:59Z
975,中国人民解放军第三二二医院,,,,,,,,,2018-12-04T19:03:59Z
978,广州中山医科大学附一医院,广州中山医科大学附属第一医院,,,,,,,,2018-12-04T19:04:00Z
979,北京空军总医院,北京空军医院,,,,,,,,2018-12-04T19:04:00Z
980,齐齐哈尔市解放军203医院,,,,,,,,,2018-12-04T19:04:00Z
982,广东省珠海市香洲区人民医院,,,,,,,,,2018-12-04T19:04:00Z
984,新疆医学院附属医院,,,,,,,,,2018-12-04T19:04:00Z
985,杭州红十字会医院,杭州市红十字会医院,,,,,,,,2018-12-04T19:04:00Z
987,广州市红十字会医院,,,,,,,,,2018-12-04T19:04:00Z
988,柳州市第一人民医院,,,,,,,,,2018-12-04T19:04:01Z
990,浙江省鄞县人民医院,浙江省宁波鄞县人民医院; 鄞县人民医院,,,,,,,,2018-12-04T19:04:01Z
991,浙江省江山市人民医院,,,,,,,,,2018-12-04T19:04:01Z
992,桂林市解放军第一八一医院,,,,,,,,,2018-12-04T19:04:01Z
994,北京首都医科大学附属友谊医院,,,,,,,,,2018-12-04T19:04:01Z
995,解放军第三Ｏ九医院,北京解放军第三0九医院; 北京解放军三Ｏ九医院,,,,,,,,2018-12-04T19:04:02Z
997,西安电力中心医院,,,,,,,,,2018-12-04T19:04:02Z
999,安徽省肺科医院,,,,,,,,,2018-12-04T19:04:02Z
1000,解放军第465医院,中国人民解放军四六五医院; 吉林市解放军第465医院; 中国人民解放军第465医院; 解放军465医院,,,,,,,,2018-12-04T19:04:02Z
1001,深圳布吉人民医院,,,,,,,,,2018-12-04T19:04:02Z
1002,广东医学院附属医院,,,,,,,,,2018-12-04T19:04:03Z
1003,罗源县医院,,,,,,,,,2018-12-04T19:04:03Z
1005,九江市第二人民医院,,,,,,,,,2018-12-04T19:04:03Z
1008,上海电业职工医院,,,,,,,,,2018-12-04T19:04:03Z
1009,广州市海珠区第二人民医院,,,,,,,,,2018-12-04T19:04:03Z
1010,烟台市中医医院,,,,,,,,,2018-12-04T19:04:03Z
1012,青海省卫校附属医院,,,,,,,,,2018-12-04T19:04:03Z
1013,南京铁道医学院附属医院,,,,,,,,,2018-12-04T19:04:03Z
1014,第三军医大学第三附属医院,,,,,,,,,2018-12-04T19:04:04Z
1015,山东黄河医院,山东省黄河医院; 山东省济南市山东黄河医院,,,,,,,,2018-12-04T19:04:04Z
1016,上海市纺织局第三医院,,,,,,,,,2018-12-04T19:04:04Z
1017,解放军第三零四医院,,,,,,,,,2018-12-04T19:04:04Z
1018,西安医科大学附属第一医院,,,,,,,,,2018-12-04T19:04:04Z
1022,浙江省海盐县中医院,浙江省海盐县人民医院,,,,,,,,2018-12-04T19:04:05Z
1025,浙江省嵊州市人民医院,,,,,,,,,2018-12-04T19:04:05Z
1026,青岛医学院附属医院,,,,,,,,,2018-12-04T19:04:05Z
1027,武汉军工总医院,本溪钢铁公司职工总医院,,,,,,,,2018-12-04T19:04:05Z
1030,武汉市第七医院,,,,,,,,,2018-12-04T19:04:05Z
1031,解放军第306医院,,,,,,,,,2018-12-04T19:04:05Z
1032,周口地区人民医院,,,,,,,,,2018-12-04T19:04:05Z
1033,沈阳部队医院,,,,,,,,,2018-12-04T19:04:05Z
1034,Ｖｉｒｃｈｏｗ医院,,,,,,,,,2018-12-04T19:04:06Z
1035,北京医科大学附属第一医院,,,,,,,,,2018-12-04T19:04:06Z
1036,北京市第四医院,,,,,,,,,2018-12-04T19:04:06Z
1037,第一军医大学附属前方医院,,,,,,,,,2018-12-04T19:04:06Z
1038,滁州市第一人民医院,,,,,,,,,2018-12-04T19:04:06Z
1039,徐州铁路医院,,,,,,,,,2018-12-04T19:04:06Z
1040,华西医科大学院附属第一医院,华西医科大学附属第一医院,,,,,,,,2018-12-04T19:04:06Z
1042,北京医院,,,,,,,,,2018-12-04T19:04:07Z
1043,衡阳医学院第一附属医院,衡阳医学院附属第一医院,,,,,,,,2018-12-04T19:04:07Z
1044,华西医科大学第一附属医院,,,,,,,,,2018-12-04T19:04:07Z
1048,广州市第二人民医院,,,,,,,,,2018-12-04T19:04:07Z
1049,河北省丰润县人民医院,,,,,,,,,2018-12-04T19:04:07Z
1051,空军郑州医院,中国人民解放军空军郑州医院,,,,,,,,2018-12-04T19:04:07Z
1052,郑州铁路局武汉中心医院,,,,,,,,,2018-12-04T19:04:07Z
1054,徐州妇产医院,,,,,,,,,2018-12-04T19:04:08Z
1055,广东农垦燕岭医院,,,,,,,,,2018-12-04T19:04:08Z
1056,吉林铁路中心医院,,,,,,,,,2018-12-04T19:04:08Z
1058,河北承德市二六六医院,,,,,,,,,2018-12-04T19:04:08Z
1059,甘肃天水市第一人民医院,,,,,,,,,2018-12-04T19:04:08Z
1060,铁道部十五工程局中心医院,河南洛阳铁道部十五工程局中心医院,,,,,,,,2018-12-04T19:04:08Z
1061,辽宁省大连市第二结核病医院,,,,,,,,,2018-12-04T19:04:08Z
1062,海军422医院,广东湛江海军422医院,,,,,,,,2018-12-04T19:04:09Z
1063,福建省人民医院,,,,,,,,,2018-12-04T19:04:09Z
1064,宁夏石咀山市第一医院,,,,,,,,,2018-12-04T19:04:09Z
1065,北京中国人民解放军第304医院,解放军304医院,,,,,,,,2018-12-04T19:04:09Z
1066,天津市中医医院,,,,,,,,,2018-12-04T19:04:09Z
1068,郑州市第三医院,郑州第三人民医院; 河南省郑州市第三医院,,,,,,,,2018-12-04T19:04:09Z
1069,天津中医学院第二附属医院,,,,,,,,,2018-12-04T19:04:10Z
1070,山东总队医院,,,,,,,,,2018-12-04T19:04:10Z
1071,牡市第一医院,,,,,,,,,2018-12-04T19:04:10Z
1074,武汉铁路中心医院,,,,,,,,,2018-12-04T19:04:10Z
1075,湖北省江陵县第一人民医院,,,,,,,,,2018-12-04T19:04:10Z
1079,武汉医学院附属第二医院,,,,,,,,,2018-12-04T19:04:10Z
1081,上海第一医学院华山医院,上海医科大学华山医院; 上海第一医学院附属华山医院; 上海第一医科大学附属华山医院,,,,,,,,2018-12-04T19:04:11Z
1084,大连医学院附属医院,,,,,,,,,2018-12-04T19:04:11Z
1085,山西医学院第一附属医院,,,,,,,,,2018-12-04T19:04:11Z
1086,山东医学院附属医院,,,,,,,,,2018-12-04T19:04:11Z
1087,南京医科大学第一附属医院,,,,,,,,,2018-12-04T19:04:11Z
1089,中国人民解放军第三○九医院,解放军北京309医院; 北京解放军309医院; 中国人民解放军309医院; 解放军三○九医院; 解放军第三○九医院,,,,,,,,2018-12-04T19:04:12Z
1090,中国人民解放军第四五五医院,解放军第四五五医院; 军第四五五医院,,,,,,,,2018-12-04T19:04:12Z
1091,上海纺织第一医院,,,,,,,,,2018-12-04T19:04:12Z
1092,华西医大附属第一医院,,,,,,,,,2018-12-04T19:04:12Z
1095,苏州医学院附属第三医院,,,,,,,,,2018-12-04T19:04:12Z
1096,北京胸科医院,广州市胸科医院,,,,,,,,2018-12-04T19:04:13Z
1097,安徽濉溪皖北矿务局百善矿医院,,,,,,,,,2018-12-04T19:04:13Z
1098,江苏省昆山市第三人民医院,,,,,,,,,2018-12-04T19:04:13Z
1099,北京首都国际机场医院,,,,,,,,,2018-12-04T19:04:13Z
1100,吉林军医学院附属医院,,,,,,,,,2018-12-04T19:04:13Z
1101,山东省茌平县中医医院,,,,,,,,,2018-12-04T19:04:13Z
1102,上海市第六人民医院,,,,,,,,,2018-12-04T19:04:13Z
1103,深圳市福田医院,,,,,,,,,2018-12-04T19:04:13Z
1104,辉县市人民医院,,,,,,,,,2018-12-04T19:04:14Z
1106,广西合浦县中医院,,,,,,,,,2018-12-04T19:04:14Z
1107,江西赣州市第一人民医院,赣州市第一人民医院,,,,,,,,2018-12-04T19:04:14Z
1108,广东五华县人民医院,,,,,,,,,2018-12-04T19:04:14Z
1112,上海医科大学附属中山医院,,,,,,,,,2018-12-04T19:04:14Z
1115,乐清市人民医院,,,,,,,,,2018-12-04T19:04:14Z
1116,济南铁路局中心医院,,,,,,,,,2018-12-04T19:04:14Z
1117,上海第二医科大学附属端金医院,上海第二医科大学附属瑞金医院; 上海第二医科大学瑞金医院,,,,,,,,2018-12-04T19:04:15Z
1118,太原市商业职工医院,,,,,,,,,2018-12-04T19:04:15Z
1119,空军天津464医院,中国人民解放军第264医院,,,,,,,,2018-12-04T19:04:15Z
1120,湖北医科大学附属第二医院,,,,,,,,,2018-12-04T19:04:15Z
1121,青岛海军第401医院,解放军301医院,,,,,,,,2018-12-04T19:04:15Z
1122,浙江省黄岩第一人民医院,,,,,,,,,2018-12-04T19:04:15Z
1123,湖南省岳阳市洞庭氮肥厂职工医院,,,,,,,,,2018-12-04T19:04:16Z
1126,首都医学院附属北京红十字朝阳医院,首都医科大学附属北京红十字朝阳医院; 北京红十字朝阳医院,,,,,,,,2018-12-04T19:04:16Z
1128,江西医学院第二附属医院,,,,,,,,,2018-12-04T19:04:16Z
1130,包头钢铁公司职工医院,,,,,,,,,2018-12-04T19:04:16Z
1132,金华市人民医院,,,,,,,,,2018-12-04T19:04:16Z
1133,四川省万县地区医院,,,,,,,,,2018-12-04T19:04:16Z
1135,中国人民解放军空军吉林医院,空军吉林医院,,,,,,,,2018-12-04T19:04:17Z
1136,山东省德州地区中医院,贵州省毕节地区中医院,,,,,,,,2018-12-04T19:04:17Z
1137,哈尔滨市第一医院,,,,,,,,,2018-12-04T19:04:17Z
1139,江西医学院第一附属医院,,,,,,,,,2018-12-04T19:04:17Z
1142,嘉荫农场医院,,,,,,,,,2018-12-04T19:04:17Z
1145,淮南轴承厂医院,,,,,,,,,2018-12-04T19:04:17Z
1147,重庆市西南医院,,,,,,,,,2018-12-04T19:04:17Z
1148,上海市金山县中心医院,,,,,,,,,2018-12-04T19:04:18Z
1151,金陵医院,南京大学医学院南京金陵医院; 南京金陵医院,,,,,,,,2018-12-04T19:04:18Z
1152,双鸭山市双阳矿医院,,,,,,,,,2018-12-04T19:04:18Z
1153,武警黄金部队第一总队医院,,,,,,,,,2018-12-04T19:04:18Z
1154,黑龙江省依安县医院,,,,,,,,,2018-12-04T19:04:18Z
1155,空军上海第一医院,,,,,,,,,2018-12-04T19:04:18Z
1160,张家口医学院第二附属医院,,,,,,,,,2018-12-04T19:04:18Z
1164,福州市第一医院,,,,,,,,,2018-12-04T19:04:19Z
1165,上海医科大学儿科医院,,,,,,,,,2018-12-04T19:04:19Z
1167,成都量具刃具厂医院,,,,,,,,,2018-12-04T19:04:19Z
1168,中国人民解放军第二五四医院,,,,,,,,,2018-12-04T19:04:19Z
1169,武汉医学院第一附属医院,,,,,,,,,2018-12-04T19:04:19Z
1171,中国人民解放军第九四医院,,,,,,,,,2018-12-04T19:04:19Z
1175,湖北医学院附一医院,湖北医学院附属第一医院,,,,,,,,2018-12-04T19:04:19Z
1179,宜昌市第一医院,,,,,,,,,2018-12-04T19:04:20Z
1253,同济医料大学附属同济医院,,,,,,,,,2018-12-04T19:04:20Z
1254,中国人民解放军福州总医院,,,,,,,,,2018-12-04T19:04:20Z
1255,青岛市解放军401医院,,,,,,,,,2018-12-04T19:04:20Z
1258,第二军医大学长海医院,,,,,,,,,2018-12-04T19:04:20Z
1259,同济医大同济医院,,,,,,,,,2018-12-04T19:04:20Z
1260,上海市仁济医院,上海第二医科大学仁济医院,,,,,,,,2018-12-04T19:04:20Z
1262,福州部队总医院,中国人民武装警察部队总医院; 中国人民解放军济南部队总医院,,,,,,,,2018-12-04T19:04:21Z
1265,湖南医科大学湘雅医院,,,,,,,,,2018-12-04T19:04:21Z
1268,第二军区大学长征医院,二军大长征医院; 上海长征医院; 上海第二军医大学附属长征医院; 上海第二军医大学长征医院,,,,,,,,2018-12-04T19:04:21Z
1277,上海医科大学附属华山医院,,,,,,,,,2018-12-04T19:04:21Z
1279,武汉市朝阳医院,,,,,,,,,2018-12-04T19:04:22Z
1282,广州军区总医院,兰州军区总医院; 福州军区总医院,,,,,,,,2018-12-04T19:04:22Z
1284,中国人民解放军第三0九医院,,,,,,,,,2018-12-04T19:04:22Z
1285,第二军医大学影像诊疗中心长征医院,,,,,,,,,2018-12-04T19:04:22Z
1290,第一军医大学附属珠江医院,广州珠江医院,,,,,,,,2018-12-04T19:04:22Z
1299,第一军医大学南方医院,中国人民解放军第一军医大学南方医院; 广州市第一军医大学南方医院; 解放军第一军医大学南方医院,,,,,,,,2018-12-04T19:04:23Z
1301,北京解放军第三○九医院,,,,,,,,,2018-12-04T19:04:23Z
1303,广州第一军医大学附属南方医院,,,,,,,,,2018-12-04T19:04:23Z
1309,浙江鄞县人民医院,,,,,,,,,2018-12-04T19:04:23Z
1310,重庆第三军医大学第二附属医院,,,,,,,,,2018-12-04T19:04:23Z
1315,武汉同济医科大学附属协和医院,同济医科大学附属协和医院,,,,,,,,2018-12-04T19:04:23Z
1320,中国人民解放军第一军医大学附属南方医院,,,,,,,,,2018-12-04T19:04:24Z
1322,解放军309医院,,,,,,,,,2018-12-04T19:04:24Z
1323,中国人民解放军第181医院,,,,,,,,,2018-12-04T19:04:24Z
1324,浙江省杭州市红十字会医院,,,,,,,,,2018-12-04T19:04:24Z
1325,山医科大学附属第一医院,,,,,,,,,2018-12-04T19:04:24Z
1332,广州第一军医大学珠江医院,,,,,,,,,2018-12-04T19:04:24Z
1336,广州 中山医科大学附属第一医院,,,,,,,,,2018-12-04T19:04:24Z
1339,重庆第三军医大学大坪医院,,,,,,,,,2018-12-04T19:04:24Z
1342,中国人民解放军第三军医大学第二附属医院,,,,,,,,,2018-12-04T19:04:25Z
1343,天津市泌尿外科研究所天津医学院第二附属医院,,,,,,,,,2018-12-04T19:04:25Z
1346,武汉市同济医科大学附属同济医院,,,,,,,,,2018-12-04T19:04:25Z
1353,重庆市第三军医大学新桥医院,,,,,,,,,2018-12-04T19:04:25Z
1354,广州市第一军医大学附属南方医院,,,,,,,,,2018-12-04T19:04:25Z
1355,成都华西医科大学附属第一医院,,,,,,,,,2018-12-04T19:04:25Z
1356,南通医学院附属医院,,,,,,,,,2018-12-04T19:04:25Z
1357,广西医科大学附属第一医院,,,,,,,,,2018-12-04T19:04:25Z
